{
"type": "FeatureCollection",
"name": "burnaby",
"crs": { "type": "name", "properties": { "name": "urn:ogc:def:crs:OGC:1.3:CRS84" } },
"features": [
{ "type": "Feature", "properties": { "name": "Burnaby", "visible": null, "admin_level": "8", "boundary": "administrative", "start_date": null, "id": 1026734145, "timestamp": 1757763125, "version": 46, "tags": { "alt_name:zh": "本那比", "name:etymology:wikidata": "Q7342509", "name:etymology:wikipedia": "en:Robert Burnaby", "name:zh": "本拿比", "name:zh-Hans": "本拿比", "name:zh-Hant": "本拿比", "note": "Burnaby is named after Robert Burnaby, Victoria merchant and former secretary to Colonel Moody. His name was applied to the local lake by 1860, which later lent it to the municipality.", "type": "boundary", "wikidata": "Q244025", "wikipedia": "en:Burnaby" }, "osm_type": "relation", "ref": null, "website": null, "border_type": null, "changeset": 171870875.0 }, "geometry": { "type": "Polygon", "coordinates": [ [ [ -123.023674011230469, 49.221961975097656 ], [ -123.023696899414062, 49.221797943115234 ], [ -123.023719787597656, 49.212078094482422 ], [ -123.023796081542969, 49.211750030517578 ], [ -123.024070739746094, 49.210567474365234 ], [ -123.0240478515625, 49.210472106933594 ], [ -123.023529052734375, 49.208175659179688 ], [ -123.023391723632812, 49.20758056640625 ], [ -123.023384094238281, 49.207500457763672 ], [ -123.023368835449219, 49.207344055175781 ], [ -123.023391723632812, 49.205173492431641 ], [ -123.023330688476562, 49.203319549560547 ], [ -123.023338317871094, 49.203140258789062 ], [ -123.02337646484375, 49.201236724853516 ], [ -123.023391723632812, 49.200588226318359 ], [ -123.023391723632812, 49.200000762939453 ], [ -123.023391723632812, 49.199283599853516 ], [ -123.023139953613281, 49.199211120605469 ], [ -123.022895812988281, 49.199134826660156 ], [ -123.02264404296875, 49.199058532714844 ], [ -123.022392272949219, 49.198982238769531 ], [ -123.022148132324219, 49.198905944824219 ], [ -123.021896362304688, 49.198829650878906 ], [ -123.021652221679688, 49.198753356933594 ], [ -123.021400451660156, 49.198677062988281 ], [ -123.021148681640625, 49.198600769042969 ], [ -123.020904541015625, 49.198528289794922 ], [ -123.020652770996094, 49.198451995849609 ], [ -123.020401000976562, 49.198375701904297 ], [ -123.020156860351562, 49.198299407958984 ], [ -123.019905090332031, 49.198223114013672 ], [ -123.0196533203125, 49.198150634765625 ], [ -123.0194091796875, 49.198074340820312 ], [ -123.019157409667969, 49.198001861572266 ], [ -123.018905639648438, 49.197929382324219 ], [ -123.018653869628906, 49.197856903076172 ], [ -123.018402099609375, 49.197784423828125 ], [ -123.018150329589844, 49.197711944580078 ], [ -123.017898559570312, 49.197643280029297 ], [ -123.01763916015625, 49.197578430175781 ], [ -123.017379760742188, 49.197521209716797 ], [ -123.017120361328125, 49.197463989257812 ], [ -123.016860961914062, 49.197410583496094 ], [ -123.0166015625, 49.197349548339844 ], [ -123.016342163085938, 49.197288513183594 ], [ -123.016082763671875, 49.197223663330078 ], [ -123.015830993652344, 49.197154998779297 ], [ -123.015579223632812, 49.197086334228516 ], [ -123.015327453613281, 49.197017669677734 ], [ -123.015068054199219, 49.196949005126953 ], [ -123.014816284179688, 49.196876525878906 ], [ -123.014564514160156, 49.196807861328125 ], [ -123.014312744140625, 49.196739196777344 ], [ -123.014060974121094, 49.196666717529297 ], [ -123.013809204101562, 49.19659423828125 ], [ -123.013557434082031, 49.196525573730469 ], [ -123.0133056640625, 49.196453094482422 ], [ -123.013053894042969, 49.196380615234375 ], [ -123.012802124023438, 49.196308135986328 ], [ -123.012550354003906, 49.196235656738281 ], [ -123.012298583984375, 49.196159362792969 ], [ -123.012046813964844, 49.196086883544922 ], [ -123.011802673339844, 49.196010589599609 ], [ -123.011550903320312, 49.195930480957031 ], [ -123.011314392089844, 49.195846557617188 ], [ -123.011070251464844, 49.195758819580078 ], [ -123.010833740234375, 49.195671081542969 ], [ -123.010597229003906, 49.195583343505859 ], [ -123.010353088378906, 49.195499420166016 ], [ -123.010101318359375, 49.195419311523438 ], [ -123.009857177734375, 49.195343017578125 ], [ -123.009605407714844, 49.195270538330078 ], [ -123.009353637695312, 49.195198059082031 ], [ -123.009101867675781, 49.195121765136719 ], [ -123.008857727050781, 49.195045471191406 ], [ -123.008613586425781, 49.194965362548828 ], [ -123.008369445800781, 49.194881439208984 ], [ -123.008125305175781, 49.194797515869141 ], [ -123.007881164550781, 49.194713592529297 ], [ -123.007637023925781, 49.194629669189453 ], [ -123.007392883300781, 49.194545745849609 ], [ -123.007156372070312, 49.194461822509766 ], [ -123.006912231445312, 49.194374084472656 ], [ -123.006668090820312, 49.194290161132812 ], [ -123.006431579589844, 49.194202423095703 ], [ -123.006187438964844, 49.194114685058594 ], [ -123.005950927734375, 49.194026947021484 ], [ -123.005706787109375, 49.193939208984375 ], [ -123.005470275878906, 49.193851470947266 ], [ -123.005233764648438, 49.193759918212891 ], [ -123.004997253417969, 49.193668365478516 ], [ -123.0047607421875, 49.193576812744141 ], [ -123.004531860351562, 49.193477630615234 ], [ -123.004302978515625, 49.193378448486328 ], [ -123.004081726074219, 49.193271636962891 ], [ -123.003944396972656, 49.193202972412109 ], [ -123.003868103027344, 49.193161010742188 ], [ -123.003654479980469, 49.193046569824219 ], [ -123.003448486328125, 49.192928314208984 ], [ -123.003250122070312, 49.192802429199219 ], [ -123.003059387207031, 49.192672729492188 ], [ -123.002876281738281, 49.192539215087891 ], [ -123.002693176269531, 49.192401885986328 ], [ -123.002517700195312, 49.192264556884766 ], [ -123.002342224121094, 49.192127227783203 ], [ -123.002159118652344, 49.191989898681641 ], [ -123.001991271972656, 49.191852569580078 ], [ -123.001815795898438, 49.19171142578125 ], [ -123.001640319824219, 49.191570281982422 ], [ -123.001472473144531, 49.191432952880859 ], [ -123.001296997070312, 49.191291809082031 ], [ -123.001129150390625, 49.191150665283203 ], [ -123.000953674316406, 49.191013336181641 ], [ -123.000778198242188, 49.190876007080078 ], [ -123.000595092773438, 49.190738677978516 ], [ -123.000419616699219, 49.190601348876953 ], [ -123.000236511230469, 49.190467834472656 ], [ -123.000053405761719, 49.190334320068359 ], [ -123.0, 49.190299987792969 ], [ -122.99981689453125, 49.190166473388672 ], [ -122.999626159667969, 49.190036773681641 ], [ -122.999435424804688, 49.189903259277344 ], [ -122.999252319335938, 49.189773559570312 ], [ -122.999061584472656, 49.189643859863281 ], [ -122.998870849609375, 49.18951416015625 ], [ -122.998680114746094, 49.189384460449219 ], [ -122.998489379882812, 49.189254760742188 ], [ -122.998298645019531, 49.189125061035156 ], [ -122.99810791015625, 49.188995361328125 ], [ -122.997909545898438, 49.188869476318359 ], [ -122.997711181640625, 49.188747406005859 ], [ -122.997512817382812, 49.188625335693359 ], [ -122.997322082519531, 49.188495635986328 ], [ -122.997138977050781, 49.188362121582031 ], [ -122.996955871582031, 49.188224792480469 ], [ -122.996772766113281, 49.188091278076172 ], [ -122.996597290039062, 49.187953948974609 ], [ -122.996414184570312, 49.187816619873047 ], [ -122.996238708496094, 49.187679290771484 ], [ -122.996055603027344, 49.187545776367188 ], [ -122.995880126953125, 49.187408447265625 ], [ -122.995697021484375, 49.187274932861328 ], [ -122.995521545410156, 49.187137603759766 ], [ -122.995346069335938, 49.187000274658203 ], [ -122.995162963867188, 49.186862945556641 ], [ -122.994987487792969, 49.186725616455078 ], [ -122.994804382324219, 49.186592102050781 ], [ -122.994613647460938, 49.18646240234375 ], [ -122.994415283203125, 49.186336517333984 ], [ -122.994209289550781, 49.18621826171875 ], [ -122.994003295898438, 49.186100006103516 ], [ -122.993789672851562, 49.185985565185547 ], [ -122.993576049804688, 49.185878753662109 ], [ -122.993354797363281, 49.185768127441406 ], [ -122.993133544921875, 49.185657501220703 ], [ -122.992919921875, 49.185546875 ], [ -122.992706298828125, 49.185432434082031 ], [ -122.992500305175781, 49.185314178466797 ], [ -122.9923095703125, 49.185188293457031 ], [ -122.99212646484375, 49.185054779052734 ], [ -122.991935729980469, 49.184925079345703 ], [ -122.991737365722656, 49.184799194335938 ], [ -122.991539001464844, 49.184677124023438 ], [ -122.991340637207031, 49.184551239013672 ], [ -122.991142272949219, 49.184425354003906 ], [ -122.990943908691406, 49.184303283691406 ], [ -122.990745544433594, 49.184181213378906 ], [ -122.99053955078125, 49.184055328369141 ], [ -122.990341186523438, 49.183933258056641 ], [ -122.990142822265625, 49.183811187744141 ], [ -122.989936828613281, 49.183689117431641 ], [ -122.989738464355469, 49.183567047119141 ], [ -122.989532470703125, 49.183444976806641 ], [ -122.989326477050781, 49.183326721191406 ], [ -122.989120483398438, 49.183212280273438 ], [ -122.9888916015625, 49.183109283447266 ], [ -122.988655090332031, 49.183017730712891 ], [ -122.988418579101562, 49.182929992675781 ], [ -122.988174438476562, 49.182846069335938 ], [ -122.987930297851562, 49.182762145996094 ], [ -122.987686157226562, 49.18267822265625 ], [ -122.987449645996094, 49.182590484619141 ], [ -122.987220764160156, 49.1824951171875 ], [ -122.986991882324219, 49.182392120361328 ], [ -122.986770629882812, 49.182285308837891 ], [ -122.986549377441406, 49.182174682617188 ], [ -122.986335754394531, 49.182064056396484 ], [ -122.986114501953125, 49.181957244873047 ], [ -122.985893249511719, 49.181854248046875 ], [ -122.98565673828125, 49.181755065917969 ], [ -122.985427856445312, 49.181663513183594 ], [ -122.985183715820312, 49.181575775146484 ], [ -122.984947204589844, 49.181484222412109 ], [ -122.984710693359375, 49.181396484375 ], [ -122.984466552734375, 49.181308746337891 ], [ -122.984230041503906, 49.181224822998047 ], [ -122.983985900878906, 49.181140899658203 ], [ -122.983741760253906, 49.181056976318359 ], [ -122.983497619628906, 49.180976867675781 ], [ -122.983253479003906, 49.180896759033203 ], [ -122.983001708984375, 49.180820465087891 ], [ -122.982757568359375, 49.180744171142578 ], [ -122.982505798339844, 49.180671691894531 ], [ -122.982246398925781, 49.180610656738281 ], [ -122.981979370117188, 49.180557250976562 ], [ -122.981719970703125, 49.180511474609375 ], [ -122.981452941894531, 49.180469512939453 ], [ -122.981185913085938, 49.180423736572266 ], [ -122.980918884277344, 49.180381774902344 ], [ -122.98065185546875, 49.180339813232422 ], [ -122.980384826660156, 49.180301666259766 ], [ -122.980110168457031, 49.180271148681641 ], [ -122.979843139648438, 49.180240631103516 ], [ -122.979568481445312, 49.180221557617188 ], [ -122.97943115234375, 49.180213928222656 ], [ -122.979293823242188, 49.180206298828125 ], [ -122.979019165039062, 49.180198669433594 ], [ -122.978744506835938, 49.180194854736328 ], [ -122.978469848632812, 49.180191040039062 ], [ -122.978195190429688, 49.180194854736328 ], [ -122.977920532226562, 49.180198669433594 ], [ -122.977645874023438, 49.180202484130859 ], [ -122.977371215820312, 49.180210113525391 ], [ -122.977104187011719, 49.180225372314453 ], [ -122.976829528808594, 49.180240631103516 ], [ -122.976554870605469, 49.180263519287109 ], [ -122.976287841796875, 49.180294036865234 ], [ -122.97601318359375, 49.180328369140625 ], [ -122.975746154785156, 49.180370330810547 ], [ -122.975486755371094, 49.180416107177734 ], [ -122.9752197265625, 49.180465698242188 ], [ -122.974960327148438, 49.180519104003906 ], [ -122.974700927734375, 49.180576324462891 ], [ -122.974441528320312, 49.180641174316406 ], [ -122.974189758300781, 49.180713653564453 ], [ -122.97393798828125, 49.1807861328125 ], [ -122.973686218261719, 49.180858612060547 ], [ -122.973434448242188, 49.180923461914062 ], [ -122.973175048828125, 49.180984497070312 ], [ -122.972915649414062, 49.181041717529297 ], [ -122.97265625, 49.181102752685547 ], [ -122.972396850585938, 49.181156158447266 ], [ -122.972129821777344, 49.18121337890625 ], [ -122.971870422363281, 49.181270599365234 ], [ -122.971611022949219, 49.181324005126953 ], [ -122.971343994140625, 49.181373596191406 ], [ -122.971084594726562, 49.181423187255859 ], [ -122.9708251953125, 49.181484222412109 ], [ -122.970573425292969, 49.181556701660156 ], [ -122.970329284667969, 49.181640625 ], [ -122.970100402832031, 49.181739807128906 ], [ -122.969894409179688, 49.181858062744141 ], [ -122.969711303710938, 49.181991577148438 ], [ -122.969551086425781, 49.182136535644531 ], [ -122.969406127929688, 49.182292938232422 ], [ -122.969284057617188, 49.182449340820312 ], [ -122.969161987304688, 49.182613372802734 ], [ -122.969039916992188, 49.182773590087891 ], [ -122.968902587890625, 49.182929992675781 ], [ -122.968757629394531, 49.183082580566406 ], [ -122.968612670898438, 49.183235168457031 ], [ -122.968467712402344, 49.183387756347656 ], [ -122.96832275390625, 49.183540344238281 ], [ -122.968170166015625, 49.183692932128906 ], [ -122.968025207519531, 49.183841705322266 ], [ -122.967880249023438, 49.183994293212891 ], [ -122.967735290527344, 49.184146881103516 ], [ -122.96759033203125, 49.184303283691406 ], [ -122.967453002929688, 49.184455871582031 ], [ -122.967308044433594, 49.184608459472656 ], [ -122.9671630859375, 49.184761047363281 ], [ -122.967010498046875, 49.184913635253906 ], [ -122.966850280761719, 49.185062408447266 ], [ -122.966697692871094, 49.185207366943359 ], [ -122.966537475585938, 49.185352325439453 ], [ -122.966377258300781, 49.185501098632812 ], [ -122.966209411621094, 49.185646057128906 ], [ -122.966049194335938, 49.185787200927734 ], [ -122.96588134765625, 49.185932159423828 ], [ -122.965721130371094, 49.186077117919922 ], [ -122.965560913085938, 49.186222076416016 ], [ -122.965400695800781, 49.186367034912109 ], [ -122.965232849121094, 49.186511993408203 ], [ -122.965072631835938, 49.186656951904297 ], [ -122.96490478515625, 49.186798095703125 ], [ -122.964729309082031, 49.186939239501953 ], [ -122.964546203613281, 49.18707275390625 ], [ -122.96435546875, 49.187202453613281 ], [ -122.964157104492188, 49.187328338623047 ], [ -122.963958740234375, 49.187450408935547 ], [ -122.963760375976562, 49.187572479248047 ], [ -122.963554382324219, 49.187694549560547 ], [ -122.963348388671875, 49.187816619873047 ], [ -122.963150024414062, 49.187938690185547 ], [ -122.96295166015625, 49.188060760498047 ], [ -122.962730407714844, 49.188167572021484 ], [ -122.962509155273438, 49.188274383544922 ], [ -122.962287902832031, 49.188381195068359 ], [ -122.962059020996094, 49.188484191894531 ], [ -122.961837768554688, 49.188591003417969 ], [ -122.961616516113281, 49.188694000244141 ], [ -122.961387634277344, 49.188796997070312 ], [ -122.961166381835938, 49.188899993896484 ], [ -122.9609375, 49.189002990722656 ], [ -122.960716247558594, 49.189102172851562 ], [ -122.960479736328125, 49.189197540283203 ], [ -122.960243225097656, 49.189292907714844 ], [ -122.960014343261719, 49.18939208984375 ], [ -122.959793090820312, 49.189495086669922 ], [ -122.959579467773438, 49.189613342285156 ], [ -122.959381103515625, 49.189731597900391 ], [ -122.959175109863281, 49.189853668212891 ], [ -122.958969116210938, 49.189975738525391 ], [ -122.958770751953125, 49.190093994140625 ], [ -122.958564758300781, 49.190216064453125 ], [ -122.958366394042969, 49.190338134765625 ], [ -122.958160400390625, 49.190460205078125 ], [ -122.957962036132812, 49.190578460693359 ], [ -122.957756042480469, 49.190700531005859 ], [ -122.957550048828125, 49.190822601318359 ], [ -122.957244873046875, 49.191005706787109 ], [ -122.957305908203125, 49.191261291503906 ], [ -122.955833435058594, 49.192024230957031 ], [ -122.954566955566406, 49.192653656005859 ], [ -122.953582763671875, 49.193130493164062 ], [ -122.95208740234375, 49.193912506103516 ], [ -122.951728820800781, 49.194076538085938 ], [ -122.951034545898438, 49.194400787353516 ], [ -122.951950073242188, 49.195121765136719 ], [ -122.952232360839844, 49.195343017578125 ], [ -122.95379638671875, 49.196571350097656 ], [ -122.954345703125, 49.196987152099609 ], [ -122.954727172851562, 49.197269439697266 ], [ -122.955619812011719, 49.197990417480469 ], [ -122.960075378417969, 49.201473236083984 ], [ -122.958595275878906, 49.2022705078125 ], [ -122.958442687988281, 49.202354431152344 ], [ -122.952056884765625, 49.205818176269531 ], [ -122.948295593261719, 49.207870483398438 ], [ -122.948234558105469, 49.207901000976562 ], [ -122.942070007324219, 49.211223602294922 ], [ -122.937934875488281, 49.213466644287109 ], [ -122.931541442871094, 49.216922760009766 ], [ -122.931106567382812, 49.217159271240234 ], [ -122.927688598632812, 49.219009399414062 ], [ -122.927688598632812, 49.219013214111328 ], [ -122.924484252929688, 49.220745086669922 ], [ -122.918403625488281, 49.224029541015625 ], [ -122.917076110839844, 49.224750518798828 ], [ -122.912117004394531, 49.227432250976562 ], [ -122.897705078125, 49.235225677490234 ], [ -122.897544860839844, 49.235221862792969 ], [ -122.895858764648438, 49.235599517822266 ], [ -122.895721435546875, 49.235630035400391 ], [ -122.895721435546875, 49.235725402832031 ], [ -122.895713806152344, 49.236114501953125 ], [ -122.895576477050781, 49.236114501953125 ], [ -122.895011901855469, 49.236106872558594 ], [ -122.895011901855469, 49.236129760742188 ], [ -122.894996643066406, 49.236488342285156 ], [ -122.894989013671875, 49.236690521240234 ], [ -122.894950866699219, 49.237869262695312 ], [ -122.894943237304688, 49.237960815429688 ], [ -122.894386291503906, 49.237953186035156 ], [ -122.894111633300781, 49.237953186035156 ], [ -122.894126892089844, 49.237476348876953 ], [ -122.893577575683594, 49.237468719482422 ], [ -122.89349365234375, 49.237468719482422 ], [ -122.893333435058594, 49.237464904785156 ], [ -122.893333435058594, 49.237590789794922 ], [ -122.893325805664062, 49.237728118896484 ], [ -122.893074035644531, 49.237724304199219 ], [ -122.892768859863281, 49.237720489501953 ], [ -122.892631530761719, 49.237720489501953 ], [ -122.892623901367188, 49.237968444824219 ], [ -122.892623901367188, 49.238075256347656 ], [ -122.892601013183594, 49.241588592529297 ], [ -122.892608642578125, 49.242057800292969 ], [ -122.892616271972656, 49.242374420166016 ], [ -122.89263916015625, 49.243148803710938 ], [ -122.89263916015625, 49.243549346923828 ], [ -122.892684936523438, 49.24560546875 ], [ -122.892662048339844, 49.245830535888672 ], [ -122.892654418945312, 49.245864868164062 ], [ -122.892707824707031, 49.248023986816406 ], [ -122.892738342285156, 49.249015808105469 ], [ -122.892852783203125, 49.253421783447266 ], [ -122.892852783203125, 49.253452301025391 ], [ -122.892951965332031, 49.257068634033203 ], [ -122.893035888671875, 49.260341644287109 ], [ -122.893051147460938, 49.260692596435547 ], [ -122.893081665039062, 49.261077880859375 ], [ -122.893241882324219, 49.262866973876953 ], [ -122.89324951171875, 49.262912750244141 ], [ -122.893447875976562, 49.265098571777344 ], [ -122.893508911132812, 49.266250610351562 ], [ -122.893600463867188, 49.267749786376953 ], [ -122.893745422363281, 49.27032470703125 ], [ -122.893760681152344, 49.270496368408203 ], [ -122.893646240234375, 49.270492553710938 ], [ -122.894256591796875, 49.291736602783203 ], [ -122.894302368164062, 49.293731689453125 ], [ -122.895721435546875, 49.293731689453125 ], [ -122.907760620117188, 49.291652679443359 ], [ -122.9200439453125, 49.291660308837891 ], [ -122.943824768066406, 49.2978515625 ], [ -122.96014404296875, 49.294780731201172 ], [ -122.986892700195312, 49.299674987792969 ], [ -122.997207641601562, 49.296119689941406 ], [ -123.000251770019531, 49.295928955078125 ], [ -123.001350402832031, 49.295864105224609 ], [ -123.003097534179688, 49.295772552490234 ], [ -123.0057373046875, 49.29559326171875 ], [ -123.009239196777344, 49.295429229736328 ], [ -123.011566162109375, 49.295257568359375 ], [ -123.012458801269531, 49.295341491699219 ], [ -123.014396667480469, 49.295356750488281 ], [ -123.019218444824219, 49.295013427734375 ], [ -123.021392822265625, 49.294834136962891 ], [ -123.022422790527344, 49.294746398925781 ], [ -123.023017883300781, 49.294658660888672 ], [ -123.023239135742188, 49.294540405273438 ], [ -123.02325439453125, 49.293365478515625 ], [ -123.023262023925781, 49.292789459228516 ], [ -123.023391723632812, 49.281105041503906 ], [ -123.023445129394531, 49.277565002441406 ], [ -123.023445129394531, 49.277454376220703 ], [ -123.023460388183594, 49.276397705078125 ], [ -123.023582458496094, 49.265586853027344 ], [ -123.023597717285156, 49.26129150390625 ], [ -123.023597717285156, 49.260990142822266 ], [ -123.023612976074219, 49.258193969726562 ], [ -123.023666381835938, 49.250648498535156 ], [ -123.023674011230469, 49.245269775390625 ], [ -123.023658752441406, 49.243003845214844 ], [ -123.023582458496094, 49.232936859130859 ], [ -123.023582458496094, 49.232303619384766 ], [ -123.023521423339844, 49.223388671875 ], [ -123.023674011230469, 49.221992492675781 ], [ -123.023674011230469, 49.221961975097656 ] ] ] } }
]
}
