{"type": "FeatureCollection", "features": [{"type": "Feature", "geometry": {"type": "Polygon", "coordinates": [[[-65.599495, 46.921394], [-65.599748, 46.921025], [-65.599828, 46.920928], [-65.599924, 46.920847], [-65.600033, 46.920785], [-65.600151, 46.920742], [-65.600274, 46.920722], [-65.601328, 46.920641], [-65.601444, 46.920641], [-65.601558, 46.920661], [-65.601667, 46.920699], [-65.601769, 46.920755], [-65.60186, 46.920827], [-65.602244, 46.921183], [-65.60299, 46.921125], [-65.603106, 46.921126], [-65.60322, 46.921146], [-65.60333, 46.921184], [-65.603431, 46.92124], [-65.603522, 46.921311], [-65.603906, 46.921667], [-65.604316, 46.921636], [-65.60457, 46.921267], [-65.60465, 46.92117], [-65.604746, 46.921089], [-65.604854, 46.921027], [-65.604972, 46.920984], [-65.605096, 46.920964], [-65.606149, 46.920883], [-65.606265, 46.920884], [-65.606379, 46.920903], [-65.606489, 46.920942], [-65.606591, 46.920997], [-65.606682, 46.921069], [-65.607065, 46.921425], [-65.607811, 46.921368], [-65.607927, 46.921368], [-65.608042, 46.921388], [-65.608151, 46.921426], [-65.608253, 46.921482], [-65.608344, 46.921554], [-65.608953, 46.922119], [-65.609037, 46.922212], [-65.609103, 46.922318], [-65.609149, 46.922435], [-65.609174, 46.922557], [-65.609177, 46.922682], [-65.609157, 46.922806], [-65.609116, 46.922924], [-65.609055, 46.923033], [-65.608955, 46.923179], [-65.609119, 46.923331], [-65.609202, 46.923424], [-65.609268, 46.92353], [-65.609314, 46.923647], [-65.609339, 46.923769], [-65.609342, 46.923894], [-65.609322, 46.924018], [-65.609281, 46.924136], [-65.60922, 46.924245], [-65.609165, 46.924325], [-65.609804, 46.924276], [-65.60992, 46.924277], [-65.610035, 46.924297], [-65.610144, 46.924335], [-65.610246, 46.924391], [-65.610337, 46.924462], [-65.610946, 46.925028], [-65.61103, 46.925121], [-65.611096, 46.925227], [-65.611142, 46.925343], [-65.611167, 46.925466], [-65.61117, 46.925591], [-65.61115, 46.925715], [-65.611109, 46.925833], [-65.611048, 46.925942], [-65.610947, 46.926088], [-65.611111, 46.92624], [-65.611195, 46.926333], [-65.611261, 46.926439], [-65.611307, 46.926555], [-65.611332, 46.926678], [-65.611335, 46.926803], [-65.611315, 46.926927], [-65.611274, 46.927045], [-65.611213, 46.927154], [-65.610769, 46.927801], [-65.610689, 46.927897], [-65.610593, 46.927978], [-65.610484, 46.928041], [-65.610366, 46.928083], [-65.610243, 46.928104], [-65.609525, 46.928159], [-65.609272, 46.928528], [-65.609192, 46.928625], [-65.609096, 46.928706], [-65.608987, 46.928768], [-65.608869, 46.92881], [-65.608745, 46.928831], [-65.608242, 46.92887], [-65.608282, 46.928907], [-65.608366, 46.929], [-65.608432, 46.929106], [-65.608478, 46.929222], [-65.608503, 46.929345], [-65.608505, 46.92947], [-65.608486, 46.929594], [-65.608445, 46.929712], [-65.608383, 46.929821], [-65.608328, 46.929901], [-65.608968, 46.929852], [-65.609084, 46.929853], [-65.609198, 46.929872], [-65.609308, 46.929911], [-65.609409, 46.929966], [-65.609501, 46.930038], [-65.61011, 46.930604], [-65.610194, 46.930697], [-65.61026, 46.930803], [-65.610306, 46.930919], [-65.610331, 46.931042], [-65.610333, 46.931167], [-65.610314, 46.931291], [-65.610273, 46.931409], [-65.610211, 46.931518], [-65.610111, 46.931663], [-65.610275, 46.931816], [-65.610359, 46.931909], [-65.610425, 46.932015], [-65.610471, 46.932131], [-65.610496, 46.932254], [-65.610499, 46.932379], [-65.610479, 46.932503], [-65.610438, 46.932621], [-65.610377, 46.93273], [-65.610321, 46.93281], [-65.610961, 46.932761], [-65.611077, 46.932762], [-65.611192, 46.932781], [-65.611301, 46.93282], [-65.611403, 46.932875], [-65.611494, 46.932947], [-65.612103, 46.933513], [-65.612187, 46.933605], [-65.612253, 46.933712], [-65.612299, 46.933828], [-65.612324, 46.933951], [-65.612327, 46.934076], [-65.612307, 46.9342], [-65.612266, 46.934318], [-65.612205, 46.934427], [-65.612105, 46.934572], [-65.612269, 46.934725], [-65.612353, 46.934818], [-65.612419, 46.934924], [-65.612465, 46.93504], [-65.612489, 46.935163], [-65.612492, 46.935288], [-65.612473, 46.935412], [-65.612431, 46.93553], [-65.61237, 46.935639], [-65.611926, 46.936285], [-65.611846, 46.936382], [-65.61175, 46.936463], [-65.611642, 46.936526], [-65.611524, 46.936568], [-65.6114, 46.936589], [-65.610682, 46.936644], [-65.610428, 46.937013], [-65.610348, 46.93711], [-65.610253, 46.93719], [-65.610144, 46.937253], [-65.610026, 46.937295], [-65.609902, 46.937316], [-65.609399, 46.937355], [-65.609439, 46.937392], [-65.609523, 46.937485], [-65.609589, 46.937591], [-65.609635, 46.937707], [-65.60966, 46.93783], [-65.609662, 46.937955], [-65.609643, 46.938079], [-65.609602, 46.938197], [-65.60954, 46.938306], [-65.609485, 46.938386], [-65.610125, 46.938337], [-65.610241, 46.938338], [-65.610355, 46.938358], [-65.610465, 46.938396], [-65.610567, 46.938451], [-65.610658, 46.938523], [-65.611267, 46.939089], [-65.611351, 46.939182], [-65.611417, 46.939288], [-65.611463, 46.939404], [-65.611488, 46.939527], [-65.611491, 46.939652], [-65.611471, 46.939776], [-65.61143, 46.939894], [-65.611369, 46.940003], [-65.611268, 46.940149], [-65.611433, 46.940301], [-65.611516, 46.940394], [-65.611582, 46.9405], [-65.611628, 46.940617], [-65.611653, 46.940739], [-65.611656, 46.940864], [-65.611636, 46.940988], [-65.611595, 46.941106], [-65.611534, 46.941215], [-65.611479, 46.941296], [-65.612119, 46.941246], [-65.612235, 46.941247], [-65.612349, 46.941267], [-65.612459, 46.941305], [-65.61256, 46.941361], [-65.612651, 46.941432], [-65.613035, 46.941788], [-65.613446, 46.941757], [-65.6137, 46.941388], [-65.61378, 46.941291], [-65.613876, 46.94121], [-65.613984, 46.941148], [-65.614102, 46.941105], [-65.614226, 46.941085], [-65.61528, 46.941004], [-65.615396, 46.941004], [-65.61551, 46.941024], [-65.615619, 46.941062], [-65.615721, 46.941118], [-65.615812, 46.941189], [-65.616196, 46.941546], [-65.616943, 46.941488], [-65.617059, 46.941489], [-65.617173, 46.941509], [-65.617283, 46.941547], [-65.617384, 46.941602], [-65.617476, 46.941674], [-65.617859, 46.94203], [-65.618271, 46.941999], [-65.618524, 46.94163], [-65.618604, 46.941533], [-65.6187, 46.941452], [-65.618808, 46.941389], [-65.618926, 46.941347], [-65.61905, 46.941326], [-65.620104, 46.941245], [-65.62022, 46.941246], [-65.620334, 46.941266], [-65.620443, 46.941304], [-65.620545, 46.94136], [-65.620636, 46.941431], [-65.62102, 46.941787], [-65.621767, 46.94173], [-65.621883, 46.941731], [-65.621997, 46.94175], [-65.622107, 46.941789], [-65.622208, 46.941844], [-65.6223, 46.941916], [-65.622909, 46.942481], [-65.622993, 46.942574], [-65.623059, 46.942681], [-65.623105, 46.942797], [-65.62313, 46.94292], [-65.623133, 46.943045], [-65.623113, 46.943168], [-65.623072, 46.943287], [-65.623011, 46.943396], [-65.622911, 46.943541], [-65.623075, 46.943694], [-65.623159, 46.943787], [-65.623225, 46.943893], [-65.623271, 46.944009], [-65.623296, 46.944132], [-65.623299, 46.944257], [-65.623279, 46.944381], [-65.623238, 46.944499], [-65.623177, 46.944608], [-65.623121, 46.944688], [-65.623762, 46.944639], [-65.623878, 46.94464], [-65.623992, 46.944659], [-65.624101, 46.944698], [-65.624203, 46.944753], [-65.624294, 46.944825], [-65.624904, 46.94539], [-65.624988, 46.945483], [-65.625054, 46.94559], [-65.6251, 46.945706], [-65.625125, 46.945829], [-65.625128, 46.945954], [-65.625108, 46.946077], [-65.625067, 46.946196], [-65.625006, 46.946305], [-65.624906, 46.94645], [-65.62507, 46.946603], [-65.625154, 46.946696], [-65.62522, 46.946802], [-65.625266, 46.946918], [-65.625291, 46.947041], [-65.625293, 46.947166], [-65.625274, 46.94729], [-65.625233, 46.947408], [-65.625171, 46.947517], [-65.624727, 46.948164], [-65.624648, 46.94826], [-65.624552, 46.948341], [-65.624443, 46.948404], [-65.624325, 46.948446], [-65.624201, 46.948467], [-65.623483, 46.948522], [-65.62323, 46.948891], [-65.62315, 46.948988], [-65.623054, 46.949069], [-65.622945, 46.949132], [-65.622827, 46.949174], [-65.622703, 46.949195], [-65.6222, 46.949233], [-65.62224, 46.94927], [-65.622324, 46.949363], [-65.62239, 46.94947], [-65.622436, 46.949586], [-65.622461, 46.949709], [-65.622464, 46.949834], [-65.622444, 46.949957], [-65.622403, 46.950076], [-65.622342, 46.950185], [-65.622286, 46.950265], [-65.622927, 46.950216], [-65.623043, 46.950217], [-65.623157, 46.950236], [-65.623267, 46.950275], [-65.623368, 46.95033], [-65.62346, 46.950402], [-65.624069, 46.950967], [-65.624153, 46.95106], [-65.624219, 46.951167], [-65.624265, 46.951283], [-65.62429, 46.951406], [-65.624293, 46.951531], [-65.624273, 46.951654], [-65.624232, 46.951773], [-65.624171, 46.951882], [-65.624071, 46.952027], [-65.624235, 46.95218], [-65.624319, 46.952273], [-65.624385, 46.952379], [-65.624431, 46.952495], [-65.624456, 46.952618], [-65.624459, 46.952743], [-65.624439, 46.952867], [-65.624398, 46.952985], [-65.624337, 46.953094], [-65.624281, 46.953175], [-65.624922, 46.953125], [-65.625038, 46.953126], [-65.625152, 46.953146], [-65.625262, 46.953184], [-65.625364, 46.953239], [-65.625455, 46.953311], [-65.626065, 46.953877], [-65.626148, 46.95397], [-65.626215, 46.954076], [-65.626261, 46.954192], [-65.626285, 46.954315], [-65.626288, 46.95444], [-65.626269, 46.954564], [-65.626228, 46.954682], [-65.626166, 46.954791], [-65.626066, 46.954937], [-65.62623, 46.955089], [-65.626314, 46.955182], [-65.62638, 46.955288], [-65.626426, 46.955405], [-65.626451, 46.955527], [-65.626454, 46.955652], [-65.626435, 46.955776], [-65.626393, 46.955894], [-65.626332, 46.956003], [-65.625888, 46.95665], [-65.625808, 46.956747], [-65.625712, 46.956828], [-65.625604, 46.95689], [-65.625485, 46.956933], [-65.625362, 46.956953], [-65.624643, 46.957009], [-65.62439, 46.957378], [-65.62431, 46.957475], [-65.624214, 46.957555], [-65.624105, 46.957618], [-65.623987, 46.95766], [-65.623864, 46.957681], [-65.62336, 46.95772], [-65.6234, 46.957757], [-65.623484, 46.95785], [-65.62355, 46.957956], [-65.623596, 46.958073], [-65.623621, 46.958195], [-65.623624, 46.95832], [-65.623604, 46.958444], [-65.623563, 46.958562], [-65.623502, 46.958671], [-65.623057, 46.959318], [-65.622978, 46.959415], [-65.622882, 46.959496], [-65.622773, 46.959558], [-65.622655, 46.959601], [-65.622531, 46.959621], [-65.621813, 46.959676], [-65.621559, 46.960046], [-65.621479, 46.960142], [-65.621383, 46.960223], [-65.621275, 46.960286], [-65.621157, 46.960328], [-65.621033, 46.960349], [-65.619979, 46.96043], [-65.619863, 46.960429], [-65.619749, 46.96041], [-65.619639, 46.960371], [-65.619538, 46.960316], [-65.619446, 46.960244], [-65.619062, 46.959888], [-65.618315, 46.959945], [-65.618199, 46.959944], [-65.618085, 46.959925], [-65.617975, 46.959887], [-65.617874, 46.959831], [-65.617783, 46.959759], [-65.617398, 46.959403], [-65.616987, 46.959435], [-65.616733, 46.959804], [-65.616653, 46.959901], [-65.616557, 46.959981], [-65.616449, 46.960044], [-65.616331, 46.960086], [-65.616207, 46.960107], [-65.615703, 46.960146], [-65.615743, 46.960183], [-65.615827, 46.960276], [-65.615893, 46.960382], [-65.615939, 46.960499], [-65.615964, 46.960621], [-65.615967, 46.960746], [-65.615947, 46.96087], [-65.615906, 46.960988], [-65.615845, 46.961097], [-65.6154, 46.961744], [-65.61532, 46.961841], [-65.615225, 46.961921], [-65.615116, 46.961984], [-65.614998, 46.962026], [-65.614874, 46.962047], [-65.614156, 46.962102], [-65.613902, 46.962472], [-65.613822, 46.962568], [-65.613726, 46.962649], [-65.613618, 46.962712], [-65.613499, 46.962754], [-65.613376, 46.962775], [-65.612872, 46.962813], [-65.612912, 46.962851], [-65.612996, 46.962944], [-65.613062, 46.96305], [-65.613108, 46.963166], [-65.613133, 46.963289], [-65.613135, 46.963414], [-65.613116, 46.963538], [-65.613075, 46.963656], [-65.613013, 46.963765], [-65.612569, 46.964412], [-65.612489, 46.964508], [-65.612393, 46.964589], [-65.612285, 46.964652], [-65.612166, 46.964694], [-65.612043, 46.964715], [-65.611324, 46.96477], [-65.61107, 46.965139], [-65.61099, 46.965236], [-65.610895, 46.965317], [-65.610786, 46.965379], [-65.610668, 46.965422], [-65.610544, 46.965442], [-65.60949, 46.965523], [-65.609374, 46.965523], [-65.60926, 46.965503], [-65.60915, 46.965465], [-65.609049, 46.965409], [-65.608958, 46.965337], [-65.608573, 46.964981], [-65.607826, 46.965038], [-65.60771, 46.965038], [-65.607596, 46.965018], [-65.607486, 46.96498], [-65.607385, 46.964924], [-65.607294, 46.964852], [-65.606909, 46.964496], [-65.606498, 46.964528], [-65.606244, 46.964897], [-65.606164, 46.964994], [-65.606068, 46.965074], [-65.605959, 46.965137], [-65.605841, 46.965179], [-65.605718, 46.9652], [-65.605214, 46.965239], [-65.605254, 46.965276], [-65.605338, 46.965369], [-65.605404, 46.965475], [-65.60545, 46.965591], [-65.605475, 46.965714], [-65.605477, 46.965839], [-65.605458, 46.965963], [-65.605416, 46.966081], [-65.605355, 46.96619], [-65.604911, 46.966837], [-65.604831, 46.966934], [-65.604735, 46.967014], [-65.604626, 46.967077], [-65.604508, 46.967119], [-65.604384, 46.96714], [-65.603666, 46.967195], [-65.603412, 46.967564], [-65.603332, 46.967661], [-65.603236, 46.967742], [-65.603127, 46.967804], [-65.603009, 46.967847], [-65.602886, 46.967867], [-65.602381, 46.967906], [-65.602422, 46.967943], [-65.602505, 46.968036], [-65.602571, 46.968143], [-65.602618, 46.968259], [-65.602642, 46.968382], [-65.602645, 46.968507], [-65.602625, 46.96863], [-65.602584, 46.968749], [-65.602523, 46.968858], [-65.602467, 46.968938], [-65.603109, 46.968889], [-65.603224, 46.96889], [-65.603339, 46.96891], [-65.603448, 46.968948], [-65.60355, 46.969003], [-65.603641, 46.969075], [-65.604251, 46.969641], [-65.604335, 46.969734], [-65.604401, 46.96984], [-65.604447, 46.969957], [-65.604472, 46.970079], [-65.604474, 46.970204], [-65.604455, 46.970328], [-65.604414, 46.970446], [-65.604352, 46.970555], [-65.604252, 46.970701], [-65.604416, 46.970853], [-65.6045, 46.970946], [-65.604566, 46.971053], [-65.604612, 46.971169], [-65.604637, 46.971292], [-65.60464, 46.971417], [-65.60462, 46.971541], [-65.604579, 46.971659], [-65.604517, 46.971768], [-65.604462, 46.971848], [-65.605103, 46.971799], [-65.605219, 46.9718], [-65.605333, 46.97182], [-65.605443, 46.971858], [-65.605545, 46.971914], [-65.605636, 46.971985], [-65.606246, 46.972551], [-65.606329, 46.972644], [-65.606395, 46.97275], [-65.606442, 46.972867], [-65.606466, 46.972989], [-65.606469, 46.973115], [-65.606449, 46.973238], [-65.606408, 46.973356], [-65.606347, 46.973465], [-65.606247, 46.973611], [-65.606411, 46.973764], [-65.606495, 46.973857], [-65.606561, 46.973963], [-65.606607, 46.974079], [-65.606632, 46.974202], [-65.606634, 46.974327], [-65.606615, 46.974451], [-65.606574, 46.974569], [-65.606512, 46.974678], [-65.606068, 46.975325], [-65.605988, 46.975421], [-65.605892, 46.975502], [-65.605783, 46.975565], [-65.605665, 46.975607], [-65.605541, 46.975628], [-65.604823, 46.975683], [-65.604569, 46.976052], [-65.604489, 46.976149], [-65.604393, 46.97623], [-65.604284, 46.976292], [-65.604166, 46.976335], [-65.604042, 46.976355], [-65.603538, 46.976394], [-65.603578, 46.976431], [-65.603662, 46.976524], [-65.603728, 46.976631], [-65.603774, 46.976747], [-65.603799, 46.97687], [-65.603802, 46.976995], [-65.603782, 46.977118], [-65.603741, 46.977237], [-65.603679, 46.977346], [-65.603235, 46.977992], [-65.603155, 46.978089], [-65.603059, 46.97817], [-65.60295, 46.978232], [-65.602832, 46.978275], [-65.602709, 46.978295], [-65.60199, 46.978351], [-65.601736, 46.97872], [-65.601656, 46.978817], [-65.60156, 46.978897], [-65.601451, 46.97896], [-65.601333, 46.979002], [-65.60121, 46.979023], [-65.600155, 46.979104], [-65.600039, 46.979103], [-65.599925, 46.979083], [-65.599815, 46.979045], [-65.599714, 46.978989], [-65.599623, 46.978918], [-65.599238, 46.978561], [-65.598491, 46.978619], [-65.598375, 46.978618], [-65.598261, 46.978598], [-65.598151, 46.97856], [-65.598049, 46.978504], [-65.597958, 46.978433], [-65.597574, 46.978076], [-65.597162, 46.978108], [-65.596908, 46.978477], [-65.596828, 46.978574], [-65.596732, 46.978655], [-65.596623, 46.978717], [-65.596505, 46.978759], [-65.596382, 46.97878], [-65.595877, 46.978819], [-65.595917, 46.978856], [-65.596001, 46.978949], [-65.596067, 46.979055], [-65.596113, 46.979172], [-65.596138, 46.979294], [-65.596141, 46.97942], [-65.596121, 46.979543], [-65.59608, 46.979661], [-65.596018, 46.979771], [-65.595574, 46.980417], [-65.595494, 46.980514], [-65.595398, 46.980595], [-65.595289, 46.980657], [-65.595171, 46.980699], [-65.595048, 46.98072], [-65.594328, 46.980775], [-65.594074, 46.981145], [-65.593994, 46.981241], [-65.593899, 46.981322], [-65.59379, 46.981385], [-65.593672, 46.981427], [-65.593548, 46.981448], [-65.593044, 46.981486], [-65.593084, 46.981523], [-65.593168, 46.981616], [-65.593234, 46.981723], [-65.59328, 46.981839], [-65.593304, 46.981962], [-65.593307, 46.982087], [-65.593287, 46.982211], [-65.593246, 46.982329], [-65.593185, 46.982438], [-65.59274, 46.983085], [-65.59266, 46.983181], [-65.592564, 46.983262], [-65.592456, 46.983325], [-65.592338, 46.983367], [-65.592214, 46.983388], [-65.591495, 46.983443], [-65.591241, 46.983812], [-65.591161, 46.983909], [-65.591065, 46.98399], [-65.590956, 46.984052], [-65.590838, 46.984094], [-65.590714, 46.984115], [-65.58966, 46.984196], [-65.589544, 46.984195], [-65.58943, 46.984175], [-65.58932, 46.984137], [-65.589219, 46.984081], [-65.589127, 46.98401], [-65.588743, 46.983653], [-65.587995, 46.98371], [-65.58788, 46.98371], [-65.587765, 46.98369], [-65.587656, 46.983652], [-65.587554, 46.983596], [-65.587463, 46.983524], [-65.587079, 46.983168], [-65.586667, 46.983199], [-65.586412, 46.983569], [-65.586332, 46.983665], [-65.586237, 46.983746], [-65.586128, 46.983809], [-65.58601, 46.983851], [-65.585886, 46.983872], [-65.584832, 46.983952], [-65.584716, 46.983952], [-65.584601, 46.983932], [-65.584492, 46.983894], [-65.58439, 46.983838], [-65.584299, 46.983766], [-65.583915, 46.98341], [-65.583167, 46.983467], [-65.583051, 46.983466], [-65.582937, 46.983446], [-65.582828, 46.983408], [-65.582726, 46.983353], [-65.582635, 46.983281], [-65.582025, 46.982715], [-65.581941, 46.982622], [-65.581875, 46.982516], [-65.581829, 46.982399], [-65.581805, 46.982276], [-65.581802, 46.982151], [-65.581822, 46.982028], [-65.581863, 46.981909], [-65.581924, 46.9818], [-65.582025, 46.981655], [-65.581861, 46.981502], [-65.581777, 46.981409], [-65.581711, 46.981303], [-65.581665, 46.981186], [-65.58164, 46.981064], [-65.581637, 46.980939], [-65.581657, 46.980815], [-65.581698, 46.980697], [-65.58176, 46.980588], [-65.581815, 46.980507], [-65.581174, 46.980556], [-65.581058, 46.980555], [-65.580944, 46.980536], [-65.580834, 46.980497], [-65.580732, 46.980442], [-65.580641, 46.98037], [-65.580257, 46.980014], [-65.579845, 46.980045], [-65.579591, 46.980415], [-65.579511, 46.980511], [-65.579415, 46.980592], [-65.579306, 46.980654], [-65.579188, 46.980697], [-65.579065, 46.980717], [-65.57801, 46.980798], [-65.577894, 46.980797], [-65.57778, 46.980777], [-65.577671, 46.980739], [-65.577569, 46.980684], [-65.577478, 46.980612], [-65.577094, 46.980255], [-65.576346, 46.980312], [-65.57623, 46.980312], [-65.576116, 46.980292], [-65.576006, 46.980254], [-65.575905, 46.980198], [-65.575814, 46.980126], [-65.57543, 46.97977], [-65.575017, 46.979801], [-65.574763, 46.980171], [-65.574683, 46.980267], [-65.574587, 46.980348], [-65.574479, 46.980411], [-65.574361, 46.980453], [-65.574237, 46.980474], [-65.573183, 46.980554], [-65.573067, 46.980553], [-65.572952, 46.980534], [-65.572843, 46.980495], [-65.572741, 46.98044], [-65.57265, 46.980368], [-65.572266, 46.980011], [-65.571519, 46.980069], [-65.571403, 46.980068], [-65.571288, 46.980048], [-65.571179, 46.98001], [-65.571077, 46.979954], [-65.570986, 46.979882], [-65.570377, 46.979316], [-65.570293, 46.979223], [-65.570227, 46.979117], [-65.570181, 46.979001], [-65.570156, 46.978878], [-65.570153, 46.978753], [-65.570173, 46.978629], [-65.570214, 46.978511], [-65.570276, 46.978402], [-65.570376, 46.978256], [-65.570212, 46.978104], [-65.570128, 46.978011], [-65.570062, 46.977904], [-65.570016, 46.977788], [-65.569992, 46.977665], [-65.569989, 46.97754], [-65.570009, 46.977416], [-65.57005, 46.977298], [-65.570112, 46.977189], [-65.570167, 46.977109], [-65.569526, 46.977158], [-65.56941, 46.977157], [-65.569296, 46.977137], [-65.569186, 46.977099], [-65.569085, 46.977043], [-65.568993, 46.976972], [-65.56861, 46.976615], [-65.568198, 46.976647], [-65.567943, 46.977016], [-65.567863, 46.977113], [-65.567767, 46.977193], [-65.567659, 46.977256], [-65.567541, 46.977298], [-65.567417, 46.977319], [-65.566363, 46.977399], [-65.566247, 46.977398], [-65.566132, 46.977379], [-65.566023, 46.97734], [-65.565921, 46.977285], [-65.56583, 46.977213], [-65.565446, 46.976857], [-65.564699, 46.976914], [-65.564583, 46.976913], [-65.564469, 46.976893], [-65.564359, 46.976855], [-65.564258, 46.976799], [-65.564166, 46.976727], [-65.563783, 46.976371], [-65.563371, 46.976402], [-65.563116, 46.976772], [-65.563036, 46.976868], [-65.56294, 46.976949], [-65.562832, 46.977012], [-65.562714, 46.977054], [-65.56259, 46.977074], [-65.562085, 46.977113], [-65.562125, 46.97715], [-65.562209, 46.977243], [-65.562275, 46.97735], [-65.562321, 46.977466], [-65.562346, 46.977589], [-65.562348, 46.977714], [-65.562329, 46.977838], [-65.562287, 46.977956], [-65.562226, 46.978065], [-65.561781, 46.978711], [-65.561701, 46.978808], [-65.561605, 46.978889], [-65.561496, 46.978951], [-65.561378, 46.978993], [-65.561255, 46.979014], [-65.560535, 46.979069], [-65.560281, 46.979438], [-65.560201, 46.979535], [-65.560105, 46.979616], [-65.559996, 46.979678], [-65.559878, 46.97972], [-65.559755, 46.979741], [-65.55925, 46.979779], [-65.55929, 46.979817], [-65.559374, 46.97991], [-65.55944, 46.980016], [-65.559486, 46.980133], [-65.55951, 46.980255], [-65.559513, 46.980381], [-65.559493, 46.980504], [-65.559452, 46.980622], [-65.55939, 46.980731], [-65.558945, 46.981378], [-65.558865, 46.981474], [-65.558769, 46.981555], [-65.558661, 46.981618], [-65.558543, 46.98166], [-65.558419, 46.981681], [-65.5577, 46.981735], [-65.557445, 46.982105], [-65.557365, 46.982201], [-65.55727, 46.982282], [-65.557161, 46.982345], [-65.557043, 46.982387], [-65.556919, 46.982407], [-65.555865, 46.982488], [-65.555749, 46.982487], [-65.555634, 46.982467], [-65.555525, 46.982429], [-65.555423, 46.982373], [-65.555332, 46.982302], [-65.554948, 46.981945], [-65.554201, 46.982002], [-65.554085, 46.982001], [-65.553971, 46.981981], [-65.553861, 46.981943], [-65.55376, 46.981887], [-65.553668, 46.981816], [-65.553285, 46.981459], [-65.552872, 46.981491], [-65.552618, 46.98186], [-65.552538, 46.981957], [-65.552442, 46.982037], [-65.552333, 46.9821], [-65.552215, 46.982142], [-65.552092, 46.982163], [-65.551037, 46.982243], [-65.550921, 46.982242], [-65.550807, 46.982223], [-65.550698, 46.982184], [-65.550596, 46.982128], [-65.550505, 46.982057], [-65.550121, 46.9817], [-65.549374, 46.981757], [-65.549258, 46.981756], [-65.549143, 46.981737], [-65.549034, 46.981698], [-65.548932, 46.981643], [-65.548841, 46.981571], [-65.548232, 46.981005], [-65.548148, 46.980912], [-65.548082, 46.980805], [-65.548036, 46.980689], [-65.548011, 46.980566], [-65.548009, 46.980441], [-65.548029, 46.980317], [-65.54807, 46.980199], [-65.548131, 46.98009], [-65.548232, 46.979944], [-65.548068, 46.979792], [-65.547984, 46.979699], [-65.547918, 46.979593], [-65.547872, 46.979476], [-65.547848, 46.979353], [-65.547845, 46.979228], [-65.547865, 46.979105], [-65.547906, 46.978986], [-65.547968, 46.978877], [-65.548023, 46.978797], [-65.547383, 46.978846], [-65.547267, 46.978845], [-65.547152, 46.978825], [-65.547043, 46.978787], [-65.546941, 46.978731], [-65.54685, 46.97866], [-65.546466, 46.978303], [-65.546054, 46.978335], [-65.5458, 46.978704], [-65.54572, 46.978801], [-65.545624, 46.978881], [-65.545515, 46.978944], [-65.545397, 46.978986], [-65.545274, 46.979007], [-65.544219, 46.979087], [-65.544103, 46.979086], [-65.543989, 46.979066], [-65.543879, 46.979028], [-65.543778, 46.978972], [-65.543687, 46.978901], [-65.543303, 46.978544], [-65.542556, 46.978601], [-65.54244, 46.9786], [-65.542325, 46.97858], [-65.542216, 46.978542], [-65.542114, 46.978486], [-65.542023, 46.978415], [-65.54164, 46.978058], [-65.541227, 46.978089], [-65.540973, 46.978459], [-65.540893, 46.978555], [-65.540797, 46.978636], [-65.540688, 46.978699], [-65.54057, 46.978741], [-65.540447, 46.978761], [-65.539392, 46.978842], [-65.539276, 46.978841], [-65.539162, 46.978821], [-65.539053, 46.978783], [-65.538951, 46.978727], [-65.53886, 46.978655], [-65.538476, 46.978299], [-65.537729, 46.978356], [-65.537613, 46.978355], [-65.537499, 46.978335], [-65.537389, 46.978297], [-65.537287, 46.978241], [-65.537196, 46.978169], [-65.536587, 46.977603], [-65.536504, 46.97751], [-65.536438, 46.977404], [-65.536392, 46.977287], [-65.536367, 46.977164], [-65.536365, 46.977039], [-65.536384, 46.976916], [-65.536426, 46.976797], [-65.536487, 46.976688], [-65.536588, 46.976543], [-65.536424, 46.97639], [-65.53634, 46.976297], [-65.536274, 46.976191], [-65.536228, 46.976075], [-65.536204, 46.975952], [-65.536201, 46.975827], [-65.536221, 46.975703], [-65.536262, 46.975585], [-65.536324, 46.975476], [-65.536379, 46.975396], [-65.535739, 46.975444], [-65.535623, 46.975444], [-65.535509, 46.975424], [-65.535399, 46.975386], [-65.535297, 46.97533], [-65.535206, 46.975258], [-65.534597, 46.974692], [-65.534514, 46.974599], [-65.534448, 46.974492], [-65.534402, 46.974376], [-65.534377, 46.974253], [-65.534375, 46.974128], [-65.534394, 46.974004], [-65.534436, 46.973886], [-65.534497, 46.973777], [-65.534598, 46.973631], [-65.534434, 46.973479], [-65.53435, 46.973386], [-65.534284, 46.97328], [-65.534238, 46.973163], [-65.534214, 46.973041], [-65.534211, 46.972915], [-65.534231, 46.972792], [-65.534272, 46.972674], [-65.534334, 46.972565], [-65.534779, 46.971918], [-65.534859, 46.971822], [-65.534955, 46.971741], [-65.535064, 46.971679], [-65.535182, 46.971636], [-65.535305, 46.971616], [-65.536024, 46.971561], [-65.536279, 46.971192], [-65.536359, 46.971095], [-65.536455, 46.971015], [-65.536564, 46.970952], [-65.536682, 46.97091], [-65.536805, 46.970889], [-65.53731, 46.970851], [-65.53727, 46.970814], [-65.537186, 46.970721], [-65.537121, 46.970614], [-65.537075, 46.970498], [-65.53705, 46.970375], [-65.537047, 46.97025], [-65.537067, 46.970126], [-65.537108, 46.970008], [-65.53717, 46.969899], [-65.537225, 46.969819], [-65.536585, 46.969868], [-65.536469, 46.969867], [-65.536355, 46.969847], [-65.536245, 46.969809], [-65.536144, 46.969753], [-65.536053, 46.969681], [-65.535444, 46.969115], [-65.53536, 46.969022], [-65.535294, 46.968916], [-65.535248, 46.968799], [-65.535223, 46.968676], [-65.535221, 46.968551], [-65.535241, 46.968428], [-65.535282, 46.968309], [-65.535344, 46.9682], [-65.535444, 46.968055], [-65.53528, 46.967903], [-65.535197, 46.96781], [-65.535131, 46.967703], [-65.535085, 46.967587], [-65.53506, 46.967464], [-65.535058, 46.967339], [-65.535077, 46.967215], [-65.535119, 46.967097], [-65.53518, 46.966988], [-65.535235, 46.966908], [-65.534596, 46.966957], [-65.53448, 46.966956], [-65.534365, 46.966936], [-65.534256, 46.966898], [-65.534154, 46.966842], [-65.534063, 46.96677], [-65.533454, 46.966204], [-65.53337, 46.966111], [-65.533305, 46.966005], [-65.533259, 46.965888], [-65.533234, 46.965765], [-65.533231, 46.96564], [-65.533251, 46.965517], [-65.533292, 46.965398], [-65.533354, 46.965289], [-65.533454, 46.965144], [-65.533291, 46.964992], [-65.533207, 46.964899], [-65.533141, 46.964792], [-65.533095, 46.964676], [-65.533071, 46.964553], [-65.533068, 46.964428], [-65.533088, 46.964304], [-65.533129, 46.964186], [-65.533191, 46.964077], [-65.533636, 46.963431], [-65.533716, 46.963334], [-65.533812, 46.963254], [-65.533921, 46.963191], [-65.534039, 46.963149], [-65.534162, 46.963128], [-65.534881, 46.963074], [-65.535136, 46.962704], [-65.535216, 46.962608], [-65.535312, 46.962527], [-65.53542, 46.962465], [-65.535538, 46.962422], [-65.535662, 46.962402], [-65.536167, 46.962363], [-65.536127, 46.962326], [-65.536043, 46.962233], [-65.535977, 46.962127], [-65.535931, 46.96201], [-65.535906, 46.961888], [-65.535904, 46.961762], [-65.535924, 46.961639], [-65.535965, 46.961521], [-65.536026, 46.961412], [-65.536081, 46.961332], [-65.535442, 46.96138], [-65.535326, 46.96138], [-65.535212, 46.96136], [-65.535102, 46.961321], [-65.535, 46.961266], [-65.534909, 46.961194], [-65.534301, 46.960628], [-65.534217, 46.960535], [-65.534151, 46.960428], [-65.534105, 46.960312], [-65.53408, 46.960189], [-65.534078, 46.960064], [-65.534098, 46.95994], [-65.534139, 46.959822], [-65.5342, 46.959713], [-65.534301, 46.959567], [-65.534137, 46.959415], [-65.534054, 46.959322], [-65.533988, 46.959216], [-65.533942, 46.959099], [-65.533917, 46.958977], [-65.533915, 46.958852], [-65.533934, 46.958728], [-65.533976, 46.95861], [-65.534037, 46.958501], [-65.534092, 46.958421], [-65.533453, 46.95847], [-65.533337, 46.958469], [-65.533222, 46.958449], [-65.533113, 46.958411], [-65.533011, 46.958355], [-65.53292, 46.958283], [-65.532537, 46.957927], [-65.532126, 46.957958], [-65.531871, 46.958328], [-65.531791, 46.958424], [-65.531695, 46.958505], [-65.531586, 46.958567], [-65.531468, 46.958609], [-65.531345, 46.95863], [-65.530291, 46.95871], [-65.530175, 46.958709], [-65.530061, 46.958689], [-65.529951, 46.958651], [-65.529849, 46.958595], [-65.529758, 46.958524], [-65.529375, 46.958167], [-65.528628, 46.958224], [-65.528512, 46.958223], [-65.528398, 46.958203], [-65.528289, 46.958165], [-65.528187, 46.958109], [-65.528096, 46.958038], [-65.527713, 46.957681], [-65.527301, 46.957713], [-65.527047, 46.958082], [-65.526967, 46.958178], [-65.526871, 46.958259], [-65.526762, 46.958322], [-65.526644, 46.958364], [-65.526521, 46.958384], [-65.525467, 46.958464], [-65.525351, 46.958464], [-65.525236, 46.958444], [-65.525127, 46.958405], [-65.525025, 46.95835], [-65.524934, 46.958278], [-65.524551, 46.957922], [-65.523804, 46.957978], [-65.523688, 46.957978], [-65.523574, 46.957958], [-65.523464, 46.957919], [-65.523363, 46.957864], [-65.523271, 46.957792], [-65.522663, 46.957226], [-65.522579, 46.957133], [-65.522513, 46.957026], [-65.522467, 46.95691], [-65.522443, 46.956787], [-65.52244, 46.956662], [-65.52246, 46.956538], [-65.522501, 46.95642], [-65.522563, 46.956311], [-65.522663, 46.956165], [-65.5225, 46.956013], [-65.522416, 46.95592], [-65.522351, 46.955814], [-65.522305, 46.955697], [-65.52228, 46.955575], [-65.522277, 46.955449], [-65.522297, 46.955326], [-65.522338, 46.955208], [-65.5224, 46.955099], [-65.522455, 46.955019], [-65.521816, 46.955067], [-65.5217, 46.955067], [-65.521586, 46.955047], [-65.521476, 46.955009], [-65.521374, 46.954953], [-65.521283, 46.954881], [-65.520675, 46.954315], [-65.520591, 46.954222], [-65.520525, 46.954115], [-65.520479, 46.953999], [-65.520455, 46.953876], [-65.520452, 46.953751], [-65.520472, 46.953627], [-65.520513, 46.953509], [-65.520575, 46.9534], [-65.520675, 46.953254], [-65.520512, 46.953102], [-65.520428, 46.953009], [-65.520363, 46.952903], [-65.520317, 46.952786], [-65.520292, 46.952664], [-65.520289, 46.952539], [-65.520309, 46.952415], [-65.520351, 46.952297], [-65.520412, 46.952188], [-65.520858, 46.951542], [-65.520938, 46.951445], [-65.521033, 46.951365], [-65.521142, 46.951302], [-65.52126, 46.95126], [-65.521384, 46.951239], [-65.522102, 46.951185], [-65.522357, 46.950815], [-65.522437, 46.950719], [-65.522533, 46.950638], [-65.522641, 46.950576], [-65.522759, 46.950534], [-65.522883, 46.950513], [-65.523388, 46.950475], [-65.523348, 46.950438], [-65.523264, 46.950344], [-65.523198, 46.950238], [-65.523152, 46.950122], [-65.523128, 46.949999], [-65.523125, 46.949874], [-65.523145, 46.94975], [-65.523186, 46.949632], [-65.523248, 46.949523], [-65.523303, 46.949443], [-65.522664, 46.949492], [-65.522548, 46.949491], [-65.522433, 46.949471], [-65.522324, 46.949433], [-65.522222, 46.949377], [-65.522131, 46.949305], [-65.521523, 46.948739], [-65.521439, 46.948646], [-65.521373, 46.94854], [-65.521327, 46.948423], [-65.521303, 46.948301], [-65.5213, 46.948175], [-65.52132, 46.948052], [-65.521361, 46.947934], [-65.521423, 46.947825], [-65.521523, 46.947679], [-65.52136, 46.947527], [-65.521276, 46.947434], [-65.52121, 46.947327], [-65.521164, 46.947211], [-65.52114, 46.947088], [-65.521137, 46.946963], [-65.521157, 46.946839], [-65.521198, 46.946721], [-65.52126, 46.946612], [-65.521315, 46.946533], [-65.520676, 46.946581], [-65.52056, 46.94658], [-65.520446, 46.946561], [-65.520336, 46.946522], [-65.520234, 46.946466], [-65.520143, 46.946395], [-65.519535, 46.945829], [-65.519451, 46.945735], [-65.519386, 46.945629], [-65.51934, 46.945513], [-65.519315, 46.94539], [-65.519313, 46.945265], [-65.519332, 46.945141], [-65.519374, 46.945023], [-65.519435, 46.944914], [-65.519536, 46.944768], [-65.519372, 46.944616], [-65.519289, 46.944523], [-65.519223, 46.944417], [-65.519177, 46.9443], [-65.519152, 46.944178], [-65.51915, 46.944053], [-65.519169, 46.943929], [-65.519211, 46.943811], [-65.519272, 46.943702], [-65.519718, 46.943056], [-65.519798, 46.942959], [-65.519894, 46.942879], [-65.520002, 46.942816], [-65.52012, 46.942774], [-65.520244, 46.942753], [-65.520962, 46.942699], [-65.521217, 46.942329], [-65.521297, 46.942233], [-65.521393, 46.942152], [-65.521501, 46.94209], [-65.521619, 46.942048], [-65.521743, 46.942027], [-65.522247, 46.941989], [-65.522207, 46.941952], [-65.522124, 46.941859], [-65.522058, 46.941752], [-65.522012, 46.941636], [-65.521987, 46.941513], [-65.521985, 46.941388], [-65.522005, 46.941264], [-65.522046, 46.941146], [-65.522107, 46.941037], [-65.522553, 46.940391], [-65.522633, 46.940295], [-65.522729, 46.940214], [-65.522837, 46.940151], [-65.522955, 46.940109], [-65.523079, 46.940089], [-65.523797, 46.940034], [-65.524052, 46.939665], [-65.524132, 46.939568], [-65.524227, 46.939488], [-65.524336, 46.939425], [-65.524454, 46.939383], [-65.524578, 46.939362], [-65.525631, 46.939282], [-65.525747, 46.939283], [-65.525862, 46.939303], [-65.525971, 46.939341], [-65.526073, 46.939397], [-65.526164, 46.939469], [-65.526547, 46.939825], [-65.527293, 46.939768], [-65.527409, 46.939769], [-65.527523, 46.939789], [-65.527633, 46.939827], [-65.527735, 46.939883], [-65.527826, 46.939955], [-65.528208, 46.940311], [-65.528619, 46.94028], [-65.528874, 46.93991], [-65.528954, 46.939814], [-65.52905, 46.939733], [-65.529158, 46.939671], [-65.529276, 46.939629], [-65.5294, 46.939608], [-65.529904, 46.93957], [-65.529864, 46.939532], [-65.529781, 46.939439], [-65.529715, 46.939333], [-65.529669, 46.939217], [-65.529644, 46.939094], [-65.529642, 46.938969], [-65.529661, 46.938845], [-65.529703, 46.938727], [-65.529764, 46.938618], [-65.530209, 46.937972], [-65.530289, 46.937875], [-65.530385, 46.937795], [-65.530494, 46.937732], [-65.530612, 46.93769], [-65.530736, 46.937669], [-65.531454, 46.937615], [-65.531708, 46.937246], [-65.531788, 46.937149], [-65.531884, 46.937068], [-65.531993, 46.937006], [-65.532111, 46.936964], [-65.532234, 46.936943], [-65.532738, 46.936905], [-65.532699, 46.936868], [-65.532615, 46.936775], [-65.532549, 46.936668], [-65.532503, 46.936552], [-65.532478, 46.936429], [-65.532476, 46.936304], [-65.532496, 46.93618], [-65.532537, 46.936062], [-65.532598, 46.935953], [-65.533044, 46.935307], [-65.533124, 46.935211], [-65.533219, 46.93513], [-65.533328, 46.935067], [-65.533446, 46.935025], [-65.53357, 46.935005], [-65.534288, 46.93495], [-65.534542, 46.934581], [-65.534622, 46.934484], [-65.534718, 46.934403], [-65.534827, 46.934341], [-65.534945, 46.934299], [-65.535068, 46.934278], [-65.536122, 46.934198], [-65.536238, 46.934199], [-65.536352, 46.934219], [-65.536461, 46.934257], [-65.536563, 46.934313], [-65.536654, 46.934384], [-65.537037, 46.934741], [-65.537783, 46.934684], [-65.537899, 46.934684], [-65.538014, 46.934704], [-65.538123, 46.934743], [-65.538225, 46.934798], [-65.538316, 46.93487], [-65.538699, 46.935226], [-65.53911, 46.935195], [-65.539364, 46.934826], [-65.539444, 46.934729], [-65.53954, 46.934649], [-65.539648, 46.934586], [-65.539766, 46.934544], [-65.53989, 46.934523], [-65.540394, 46.934485], [-65.540354, 46.934448], [-65.540271, 46.934355], [-65.540205, 46.934248], [-65.540159, 46.934132], [-65.540134, 46.934009], [-65.540132, 46.933884], [-65.540151, 46.933761], [-65.540193, 46.933642], [-65.540254, 46.933533], [-65.540699, 46.932887], [-65.540779, 46.932791], [-65.540875, 46.93271], [-65.540984, 46.932647], [-65.541102, 46.932605], [-65.541225, 46.932585], [-65.541943, 46.93253], [-65.542197, 46.932161], [-65.542277, 46.932064], [-65.542373, 46.931983], [-65.542482, 46.931921], [-65.5426, 46.931879], [-65.542724, 46.931858], [-65.543227, 46.93182], [-65.543188, 46.931783], [-65.543104, 46.93169], [-65.543038, 46.931583], [-65.542992, 46.931467], [-65.542967, 46.931344], [-65.542965, 46.931219], [-65.542985, 46.931095], [-65.543026, 46.930977], [-65.543087, 46.930868], [-65.543142, 46.930789], [-65.542504, 46.930837], [-65.542388, 46.930837], [-65.542273, 46.930817], [-65.542164, 46.930778], [-65.542062, 46.930723], [-65.541971, 46.930651], [-65.541363, 46.930085], [-65.541279, 46.929992], [-65.541213, 46.929885], [-65.541167, 46.929769], [-65.541142, 46.929646], [-65.54114, 46.929521], [-65.54116, 46.929398], [-65.541201, 46.92928], [-65.541262, 46.929171], [-65.541363, 46.929025], [-65.541199, 46.928873], [-65.541116, 46.92878], [-65.54105, 46.928673], [-65.541004, 46.928557], [-65.540979, 46.928434], [-65.540976, 46.928309], [-65.540996, 46.928186], [-65.541037, 46.928067], [-65.541099, 46.927959], [-65.541154, 46.927879], [-65.540515, 46.927927], [-65.540399, 46.927927], [-65.540285, 46.927907], [-65.540176, 46.927869], [-65.540074, 46.927813], [-65.539983, 46.927741], [-65.539374, 46.927175], [-65.539291, 46.927082], [-65.539225, 46.926976], [-65.539179, 46.926859], [-65.539154, 46.926737], [-65.539152, 46.926611], [-65.539171, 46.926488], [-65.539213, 46.92637], [-65.539274, 46.926261], [-65.539374, 46.926115], [-65.539211, 46.925963], [-65.539127, 46.92587], [-65.539062, 46.925764], [-65.539016, 46.925647], [-65.538991, 46.925525], [-65.538988, 46.925399], [-65.539008, 46.925276], [-65.539049, 46.925158], [-65.539111, 46.925049], [-65.539556, 46.924403], [-65.539636, 46.924306], [-65.539732, 46.924225], [-65.53984, 46.924163], [-65.539958, 46.924121], [-65.540082, 46.9241], [-65.5408, 46.924045], [-65.541054, 46.923676], [-65.541134, 46.92358], [-65.54123, 46.923499], [-65.541338, 46.923436], [-65.541456, 46.923394], [-65.54158, 46.923374], [-65.542084, 46.923335], [-65.542044, 46.923298], [-65.54196, 46.923205], [-65.541894, 46.923099], [-65.541848, 46.922982], [-65.541824, 46.92286], [-65.541821, 46.922735], [-65.541841, 46.922611], [-65.541882, 46.922493], [-65.541944, 46.922384], [-65.542388, 46.921738], [-65.542468, 46.921641], [-65.542564, 46.92156], [-65.542673, 46.921498], [-65.542791, 46.921456], [-65.542915, 46.921435], [-65.543632, 46.92138], [-65.543886, 46.921011], [-65.543966, 46.920915], [-65.544062, 46.920834], [-65.544171, 46.920772], [-65.544289, 46.920729], [-65.544413, 46.920709], [-65.545466, 46.920628], [-65.545582, 46.920629], [-65.545696, 46.920649], [-65.545806, 46.920687], [-65.545907, 46.920743], [-65.545998, 46.920815], [-65.546381, 46.921171], [-65.547127, 46.921114], [-65.547243, 46.921115], [-65.547357, 46.921134], [-65.547467, 46.921173], [-65.547569, 46.921229], [-65.54766, 46.9213], [-65.548042, 46.921656], [-65.548453, 46.921625], [-65.548707, 46.921256], [-65.548787, 46.921159], [-65.548883, 46.921079], [-65.548991, 46.921016], [-65.549109, 46.920974], [-65.549233, 46.920953], [-65.549737, 46.920915], [-65.549697, 46.920878], [-65.549613, 46.920785], [-65.549547, 46.920678], [-65.549501, 46.920562], [-65.549477, 46.920439], [-65.549474, 46.920314], [-65.549494, 46.920191], [-65.549535, 46.920073], [-65.549596, 46.919964], [-65.550041, 46.919317], [-65.550121, 46.919221], [-65.550217, 46.91914], [-65.550326, 46.919078], [-65.550444, 46.919035], [-65.550567, 46.919015], [-65.551285, 46.91896], [-65.551539, 46.918591], [-65.551619, 46.918494], [-65.551715, 46.918414], [-65.551823, 46.918351], [-65.551941, 46.918309], [-65.552065, 46.918288], [-65.552569, 46.91825], [-65.552529, 46.918213], [-65.552445, 46.91812], [-65.552379, 46.918013], [-65.552333, 46.917897], [-65.552309, 46.917774], [-65.552306, 46.917649], [-65.552326, 46.917526], [-65.552367, 46.917408], [-65.552428, 46.917299], [-65.552873, 46.916652], [-65.552953, 46.916556], [-65.553049, 46.916475], [-65.553157, 46.916413], [-65.553276, 46.91637], [-65.553399, 46.91635], [-65.554117, 46.916295], [-65.554371, 46.915926], [-65.554451, 46.915829], [-65.554546, 46.915749], [-65.554655, 46.915686], [-65.554773, 46.915644], [-65.554897, 46.915623], [-65.55595, 46.915543], [-65.556066, 46.915543], [-65.55618, 46.915563], [-65.55629, 46.915602], [-65.556391, 46.915657], [-65.556483, 46.915729], [-65.556865, 46.916085], [-65.557611, 46.916028], [-65.557727, 46.916029], [-65.557841, 46.916049], [-65.557951, 46.916087], [-65.558053, 46.916143], [-65.558144, 46.916214], [-65.558527, 46.91657], [-65.558937, 46.916539], [-65.559191, 46.91617], [-65.559271, 46.916073], [-65.559367, 46.915993], [-65.559475, 46.91593], [-65.559593, 46.915888], [-65.559717, 46.915867], [-65.56077, 46.915787], [-65.560886, 46.915787], [-65.561, 46.915807], [-65.56111, 46.915846], [-65.561212, 46.915901], [-65.561303, 46.915973], [-65.561686, 46.916329], [-65.562431, 46.916272], [-65.562547, 46.916273], [-65.562662, 46.916293], [-65.562771, 46.916331], [-65.562873, 46.916387], [-65.562964, 46.916458], [-65.563573, 46.917024], [-65.563656, 46.917117], [-65.563722, 46.917223], [-65.563768, 46.91734], [-65.563793, 46.917462], [-65.563795, 46.917588], [-65.563776, 46.917711], [-65.563735, 46.917829], [-65.563673, 46.917938], [-65.563573, 46.918084], [-65.563736, 46.918236], [-65.56382, 46.918329], [-65.563886, 46.918435], [-65.563932, 46.918552], [-65.563957, 46.918674], [-65.563959, 46.9188], [-65.56394, 46.918923], [-65.563899, 46.919041], [-65.563837, 46.91915], [-65.563782, 46.91923], [-65.564421, 46.919181], [-65.564537, 46.919182], [-65.564651, 46.919202], [-65.564761, 46.91924], [-65.564862, 46.919296], [-65.564953, 46.919368], [-65.565336, 46.919724], [-65.565747, 46.919692], [-65.566001, 46.919323], [-65.566081, 46.919227], [-65.566176, 46.919146], [-65.566285, 46.919083], [-65.566403, 46.919041], [-65.566527, 46.91902], [-65.56758, 46.91894], [-65.567696, 46.91894], [-65.56781, 46.91896], [-65.56792, 46.918999], [-65.568021, 46.919054], [-65.568113, 46.919126], [-65.568496, 46.919482], [-65.569241, 46.919425], [-65.569357, 46.919426], [-65.569472, 46.919445], [-65.569581, 46.919484], [-65.569683, 46.91954], [-65.569774, 46.919611], [-65.570157, 46.919967], [-65.570568, 46.919936], [-65.570821, 46.919567], [-65.570901, 46.91947], [-65.570997, 46.919389], [-65.571106, 46.919327], [-65.571224, 46.919285], [-65.571348, 46.919264], [-65.572401, 46.919183], [-65.572517, 46.919184], [-65.572631, 46.919204], [-65.57274, 46.919242], [-65.572842, 46.919298], [-65.572933, 46.91937], [-65.573316, 46.919726], [-65.574062, 46.919669], [-65.574178, 46.919669], [-65.574293, 46.919689], [-65.574402, 46.919727], [-65.574504, 46.919783], [-65.574595, 46.919855], [-65.575204, 46.92042], [-65.575287, 46.920513], [-65.575353, 46.92062], [-65.575399, 46.920736], [-65.575424, 46.920859], [-65.575427, 46.920984], [-65.575407, 46.921107], [-65.575366, 46.921226], [-65.575304, 46.921335], [-65.575204, 46.92148], [-65.575368, 46.921632], [-65.575452, 46.921725], [-65.575518, 46.921832], [-65.575564, 46.921948], [-65.575588, 46.922071], [-65.575591, 46.922196], [-65.575571, 46.922319], [-65.57553, 46.922438], [-65.575469, 46.922547], [-65.575414, 46.922627], [-65.576053, 46.922578], [-65.576169, 46.922578], [-65.576283, 46.922598], [-65.576392, 46.922636], [-65.576494, 46.922692], [-65.576585, 46.922764], [-65.576968, 46.92312], [-65.577379, 46.923088], [-65.577633, 46.922719], [-65.577713, 46.922623], [-65.577809, 46.922542], [-65.577917, 46.922479], [-65.578035, 46.922437], [-65.578159, 46.922416], [-65.579212, 46.922336], [-65.579328, 46.922337], [-65.579442, 46.922356], [-65.579552, 46.922395], [-65.579654, 46.92245], [-65.579745, 46.922522], [-65.580128, 46.922878], [-65.580874, 46.922821], [-65.58099, 46.922822], [-65.581104, 46.922841], [-65.581214, 46.92288], [-65.581315, 46.922935], [-65.581407, 46.923007], [-65.58179, 46.923363], [-65.5822, 46.923332], [-65.582454, 46.922963], [-65.582534, 46.922866], [-65.58263, 46.922785], [-65.582739, 46.922723], [-65.582857, 46.92268], [-65.58298, 46.92266], [-65.583483, 46.922621], [-65.583444, 46.922584], [-65.58336, 46.922491], [-65.583294, 46.922385], [-65.583248, 46.922269], [-65.583223, 46.922146], [-65.58322, 46.922021], [-65.58324, 46.921897], [-65.583281, 46.921779], [-65.583343, 46.92167], [-65.583787, 46.921024], [-65.583867, 46.920927], [-65.583963, 46.920846], [-65.584071, 46.920784], [-65.584189, 46.920741], [-65.584313, 46.920721], [-65.585031, 46.920666], [-65.585284, 46.920297], [-65.585364, 46.9202], [-65.58546, 46.920119], [-65.585569, 46.920057], [-65.585687, 46.920014], [-65.58581, 46.919994], [-65.586314, 46.919955], [-65.586274, 46.919918], [-65.58619, 46.919825], [-65.586124, 46.919719], [-65.586078, 46.919603], [-65.586053, 46.91948], [-65.586051, 46.919355], [-65.58607, 46.919231], [-65.586111, 46.919113], [-65.586173, 46.919004], [-65.586617, 46.918358], [-65.586697, 46.918261], [-65.586793, 46.91818], [-65.586901, 46.918118], [-65.58702, 46.918075], [-65.587143, 46.918055], [-65.587861, 46.918], [-65.588114, 46.917631], [-65.588194, 46.917534], [-65.58829, 46.917453], [-65.588399, 46.917391], [-65.588517, 46.917348], [-65.58864, 46.917328], [-65.589693, 46.917247], [-65.589809, 46.917248], [-65.589924, 46.917267], [-65.590033, 46.917306], [-65.590135, 46.917361], [-65.590226, 46.917433], [-65.590609, 46.917789], [-65.591355, 46.917732], [-65.591471, 46.917732], [-65.591586, 46.917752], [-65.591695, 46.91779], [-65.591797, 46.917846], [-65.591888, 46.917918], [-65.592271, 46.918274], [-65.592682, 46.918242], [-65.592935, 46.917873], [-65.593015, 46.917777], [-65.593111, 46.917696], [-65.59322, 46.917633], [-65.593338, 46.917591], [-65.593461, 46.91757], [-65.594514, 46.917489], [-65.59463, 46.91749], [-65.594745, 46.91751], [-65.594854, 46.917548], [-65.594956, 46.917604], [-65.595047, 46.917676], [-65.59543, 46.918032], [-65.596176, 46.917974], [-65.596292, 46.917975], [-65.596407, 46.917995], [-65.596516, 46.918033], [-65.596618, 46.918089], [-65.596709, 46.91816], [-65.597318, 46.918726], [-65.597402, 46.918819], [-65.597468, 46.918925], [-65.597514, 46.919042], [-65.597539, 46.919164], [-65.597541, 46.919289], [-65.597522, 46.919413], [-65.597481, 46.919531], [-65.597419, 46.91964], [-65.597319, 46.919786], [-65.597483, 46.919938], [-65.597567, 46.920031], [-65.597633, 46.920137], [-65.597679, 46.920254], [-65.597704, 46.920376], [-65.597706, 46.920501], [-65.597687, 46.920625], [-65.597646, 46.920743], [-65.597584, 46.920852], [-65.597529, 46.920932], [-65.598168, 46.920883], [-65.598284, 46.920884], [-65.598399, 46.920904], [-65.598508, 46.920942], [-65.59861, 46.920998], [-65.598701, 46.921069], [-65.599084, 46.921425], [-65.599495, 46.921394]]]}, "properties": {"h3_index": "862b02d27ffffff", "intermediate_res": 10, "buffer_meters": 75.863783, "method": "buffered_boundary_cpp"}}]}