{
"type": "FeatureCollection",
"name": "granville_island",
"features": [
{ "type": "Feature", "properties": { }, "geometry": { "type": "Polygon", "coordinates": [ [ [ -123.14060490649851, 49.272525013344207 ], [ -123.140605503783547, 49.272533987981987 ], [ -123.140493883991041, 49.272985687113326 ], [ -123.140445891281402, 49.273102688473742 ], [ -123.140213970564858, 49.273504924394338 ], [ -123.140175780351868, 49.273608267969003 ], [ -123.139906102472011, 49.273996083796831 ], [ -123.139529467279971, 49.274343655721609 ], [ -123.139059394074479, 49.274638505748626 ], [ -123.138610888130401, 49.274870713960503 ], [ -123.138051770652396, 49.275106479445448 ], [ -123.137433710184254, 49.275267357314881 ], [ -123.136779859226678, 49.275347320980075 ], [ -123.136114711537942, 49.275343374927417 ], [ -123.135887605432472, 49.275312802584594 ], [ -123.135536344457563, 49.275327259063424 ], [ -123.13543918768319, 49.275330355046819 ], [ -123.135208977237923, 49.275335555290113 ], [ -123.134414547947387, 49.275292985127621 ], [ -123.134316243739818, 49.275280084561224 ], [ -123.133804316236478, 49.275185428398402 ], [ -123.133320848307676, 49.27504021508647 ], [ -123.133264546760557, 49.275019714280489 ], [ -123.132727145348341, 49.274777662139776 ], [ -123.1326431444745, 49.274731560548716 ], [ -123.132058506929141, 49.274318781438616 ], [ -123.131824372222482, 49.274105062541544 ], [ -123.131703183553512, 49.274036776462324 ], [ -123.131680037694565, 49.274021072477041 ], [ -123.131677371637707, 49.274019287584856 ], [ -123.131581861082736, 49.273974950879385 ], [ -123.131527257444631, 49.273942710197069 ], [ -123.131394259533806, 49.273865690107165 ], [ -123.131085885372059, 49.273662795289439 ], [ -123.130952386580574, 49.273562992326177 ], [ -123.130568632656662, 49.273213598687612 ], [ -123.130551306193027, 49.273188977490328 ], [ -123.130124220555473, 49.272863452938125 ], [ -123.129850335710216, 49.272751885162016 ], [ -123.129370173403387, 49.272460560431945 ], [ -123.129295973980334, 49.272406058797735 ], [ -123.129062357406468, 49.272214365735195 ], [ -123.128861962528973, 49.272030160916906 ], [ -123.128468813588839, 49.271557878448661 ], [ -123.128431790350916, 49.271466457686273 ], [ -123.128302037733462, 49.271360953530802 ], [ -123.128228096086147, 49.271303076177816 ], [ -123.127877801521734, 49.271017868122122 ], [ -123.127543906502567, 49.270691187136201 ], [ -123.127302030062367, 49.270331456779772 ], [ -123.127159558085097, 49.269949664763566 ], [ -123.127120839855522, 49.269557472399207 ], [ -123.127135368562136, 49.269143872803255 ], [ -123.127186250543048, 49.268806609230097 ], [ -123.1272443986323, 49.268657122411362 ], [ -123.127217415188099, 49.268471473702974 ], [ -123.127217518216312, 49.268427873703445 ], [ -123.127267427146521, 49.268049464998462 ], [ -123.127413940158604, 49.267681949911676 ], [ -123.127652875837569, 49.267335811925989 ], [ -123.127683477340597, 49.267299912712723 ], [ -123.128045869018223, 49.266954805469631 ], [ -123.128499743054263, 49.266659646195158 ], [ -123.129029362713084, 49.266424667705593 ], [ -123.129616366085386, 49.266258016292753 ], [ -123.129700462844269, 49.266240017066302 ], [ -123.130262301606876, 49.266153154237408 ], [ -123.130838431101949, 49.266129066032789 ], [ -123.130966425288022, 49.266130765961115 ], [ -123.131782308079536, 49.266206264245675 ], [ -123.132289851334207, 49.266339247010819 ], [ -123.132350114433308, 49.266344385704677 ], [ -123.132680553274881, 49.266343521152038 ], [ -123.133162419055694, 49.266373082957173 ], [ -123.133349634616977, 49.266331289192117 ], [ -123.134046479973804, 49.266274432004373 ], [ -123.134746436997688, 49.266311462562264 ], [ -123.135228915504811, 49.266369902152576 ], [ -123.135376823350427, 49.266382072860509 ], [ -123.136012775516633, 49.266475155393167 ], [ -123.136610443788342, 49.26664512863384 ], [ -123.137148336445307, 49.266885880600022 ], [ -123.137326534532349, 49.266983077237533 ], [ -123.137407423588769, 49.267028608352589 ], [ -123.137678421611483, 49.267186003050135 ], [ -123.138163022354831, 49.267533181643415 ], [ -123.138526712729956, 49.267938715226279 ], [ -123.138675723506978, 49.268153611215773 ], [ -123.138695674751631, 49.268190114806522 ], [ -123.139076596062068, 49.268368842163589 ], [ -123.139581837323476, 49.268658804922154 ], [ -123.139991187874031, 49.269007566755363 ], [ -123.140288992667493, 49.269401791581046 ], [ -123.140463861126676, 49.269826404555204 ], [ -123.140509103052011, 49.270265168421361 ], [ -123.140437275473815, 49.27062893191593 ], [ -123.14046074067619, 49.270730112166547 ], [ -123.140669800453225, 49.271078069303634 ], [ -123.140686903402241, 49.271124468810761 ], [ -123.140780864180044, 49.271725424215838 ], [ -123.140776270540442, 49.271817124345631 ], [ -123.140737068118938, 49.27208997468697 ], [ -123.140711875200552, 49.27219567541475 ], [ -123.14070108601868, 49.272238255017619 ], [ -123.140685889773593, 49.272294855455669 ], [ -123.140610113148384, 49.272512862594226 ], [ -123.14060490649851, 49.272525013344207 ] ] ] } }
]
}
