{"type": "FeatureCollection", "features": [{"type": "Feature", "properties": {"name": "Granville Island +250 m", "note": "the AOI the DRA source is clipped to; the duckOSM reference carries +500 m"}, "geometry": {"type": "Polygon", "coordinates": [[[-123.14060384236639, 49.272527496706765], [-123.14060246178038, 49.27256448009869], [-123.14056349205241, 49.27277677432823], [-123.14049388399104, 49.27298568711333], [-123.1404458912814, 49.27310268847374], [-123.14034214244496, 49.273313532869736], [-123.14023641671403, 49.27347268696514], [-123.14017578035187, 49.273608267969], [-123.14005501078886, 49.27380636442425], [-123.13990610247201, 49.27399608379683], [-123.13973039454753, 49.274175719522006], [-123.13952946727997, 49.27434365572161], [-123.13930512784431, 49.27449838174243], [-123.13905939407448, 49.27463850574863], [-123.1386108881304, 49.2748707139605], [-123.13834006769042, 49.274997468022285], [-123.1380517706524, 49.27510647944545], [-123.13774870319122, 49.27519672492647], [-123.13743371018425, 49.27526735731488], [-123.13710974849889, 49.27531771356853], [-123.13677985922668, 49.275347320980075], [-123.13644713912552, 49.275355901616116], [-123.13611471153794, 49.27534337492742], [-123.13583560592421, 49.27531494274158], [-123.13553634445756, 49.275327259063424], [-123.13543918768319, 49.27533035504682], [-123.13520897723792, 49.27533555529011], [-123.13480986990503, 49.275329390453024], [-123.13441454794739, 49.27529298512762], [-123.13431624373982, 49.275280084561224], [-123.13397239101285, 49.27522273548693], [-123.13363940926705, 49.27514249384793], [-123.13332084830768, 49.27504021508647], [-123.13326454676056, 49.27501971428049], [-123.13298704748041, 49.27490705083595], [-123.13272714534834, 49.274777662139776], [-123.1326431444745, 49.274731560548716], [-123.13243088313189, 49.274604805798376], [-123.1322355487441, 49.274466891332445], [-123.13205850692914, 49.274318781438616], [-123.13184517155022, 49.27412404832773], [-123.13172302517125, 49.27404897199409], [-123.13158186108274, 49.273974950879385], [-123.13152725744463, 49.27394271019707], [-123.1313942595338, 49.273865690107165], [-123.13108588537206, 49.27366279528944], [-123.13095238658057, 49.27356299232618], [-123.13074770879496, 49.2733943148323], [-123.13056863265666, 49.27321359868761], [-123.13054563738885, 49.27318465676791], [-123.1301541262154, 49.27288624721535], [-123.13012002183137, 49.272873790383606], [-123.12985033571022, 49.272751885162016], [-123.12959962604053, 49.27261372288325], [-123.12937017340339, 49.272460560431945], [-123.12929597398033, 49.272406058797735], [-123.12906235740647, 49.272214365735195], [-123.12886196252897, 49.272030160916906], [-123.12868400567218, 49.27184876578931], [-123.12853340918815, 49.271657055004404], [-123.1284115564912, 49.27145679007466], [-123.12840683461539, 49.271446165781384], [-123.12830203773346, 49.2713609535308], [-123.12822809608615, 49.271303076177816], [-123.12787780152173, 49.27101786812212], [-123.12767627004678, 49.270835848649355], [-123.12750351498312, 49.27064157367265], [-123.12736126197096, 49.270436984183185], [-123.12725093185075, 49.27022412419945], [-123.12717362648095, 49.27000512034259], [-123.12713011774474, 49.269782160586956], [-123.12712083985552, 49.26955747239921], [-123.12713536856214, 49.269143872803255], [-123.12716065507584, 49.26891842471681], [-123.1272204017379, 49.2686957768922], [-123.12723156309691, 49.26866983021459], [-123.1272174151881, 49.268471473702974], [-123.12721751821631, 49.268427873703445], [-123.12723572869916, 49.26820012205932], [-123.12728909607645, 49.2679747486094], [-123.1273770709937, 49.26775407130275], [-123.12749874819231, 49.26754035975852], [-123.12765287583757, 49.26733581192599], [-123.1276834773406, 49.26729991271272], [-123.12785237251309, 49.267121827396856], [-123.12804586901822, 49.26695480546963], [-123.12826228587227, 49.266800297712855], [-123.12849974305426, 49.26665964619516], [-123.12875617783872, 49.266534072617674], [-123.12902936271308, 49.26642466770559], [-123.12931692472408, 49.266332381737215], [-123.12961636608539, 49.26625801629275], [-123.12970046284427, 49.2662400170663], [-123.13007263851094, 49.26617521860978], [-123.13045355589209, 49.26613807945734], [-123.13083843110195, 49.26612906603279], [-123.13096642528802, 49.266130765961115], [-123.13129592078494, 49.266145529892285], [-123.1316217290861, 49.266180924886285], [-123.13194084102011, 49.26623662403475], [-123.13225030923873, 49.26631211289892], [-123.13235162645789, 49.2663443817508], [-123.13268055327488, 49.26634352115204], [-123.13301504579779, 49.266353320169934], [-123.13315392923357, 49.26636633296039], [-123.13342196789962, 49.26632092151127], [-123.13375099569205, 49.26628697653525], [-123.13408349950811, 49.26627403709167], [-123.13441635562151, 49.26628222474059], [-123.13474643699769, 49.266311462562264], [-123.13522891550481, 49.266369902152576], [-123.13537682335043, 49.26638207286051], [-123.13569817847167, 49.26641872688366], [-123.13601277551663, 49.26647515539317], [-123.13631777998937, 49.26655084997643], [-123.13661044378834, 49.26664512863384], [-123.13688812995869, 49.26675714192111], [-123.1371483364453, 49.26688588060002], [-123.13732653453235, 49.26698307723753], [-123.13740742358877, 49.26702860835259], [-123.13767842161148, 49.267186003050135], [-123.13793462559585, 49.2673512811758], [-123.13816302235483, 49.267533181643415], [-123.13836110849537, 49.267729710945076], [-123.13852671272996, 49.26793871522628], [-123.13867572350698, 49.26815361121577], [-123.13869860795218, 49.26819149106687], [-123.13907659606207, 49.26836884216359], [-123.13934007336331, 49.26850572255884], [-123.13958183732348, 49.268658804922154], [-123.1397995710549, 49.26882662235728], [-123.13999118787403, 49.26900756675536], [-123.14015485130152, 49.269199904200406], [-123.1402889926675, 49.269401791581046], [-123.14039232615359, 49.26961129424894], [-123.14046386112668, 49.269826404555204], [-123.14050291164602, 49.27004506108719], [-123.14050910305201, 49.27026516842136], [-123.14048237557303, 49.27048461720316], [-123.14044823125988, 49.2706091931622], [-123.14046878346959, 49.2706694090393], [-123.14047524922788, 49.27070239583805], [-123.14058170684885, 49.27087958356985], [-123.14066980045322, 49.271078069303634], [-123.14068690340224, 49.27112446881076], [-123.1407457134984, 49.27132267426305], [-123.14077711825497, 49.27152353244555], [-123.14078086418004, 49.27172542421584], [-123.14077627054044, 49.27181712434563], [-123.14073706811894, 49.27208997468697], [-123.14071187520055, 49.27219567541475], [-123.14070108601868, 49.27223825501762], [-123.1406858897736, 49.27229485545567], [-123.14061011314838, 49.272512862594226], [-123.14060384236639, 49.272527496706765]]]}}]}