{"type": "FeatureCollection", "features": [{"type": "Feature", "properties": {"name": "Granville Island", "source": "OSM relation 11670779 (boundary=administrative, natural=peninsula)"}, "geometry": {"type": "Polygon", "coordinates": [[[-123.1370741, 49.2701964], [-123.1369006, 49.270303600000005], [-123.13676520000001, 49.270387400000004], [-123.13671970000001, 49.270484800000006], [-123.1368027, 49.270694600000006], [-123.13688810000001, 49.270903100000005], [-123.1369301, 49.2709245], [-123.13700600000001, 49.270932800000004], [-123.1370414, 49.270957300000006], [-123.13705780000001, 49.270995400000004], [-123.13708380000001, 49.2710579], [-123.13707450000001, 49.2710887], [-123.13704080000001, 49.2711228], [-123.1370088, 49.2711629], [-123.1370038, 49.2712124], [-123.1370248, 49.27125160000001], [-123.13732890000001, 49.271605300000004], [-123.13734600000001, 49.2716517], [-123.13734140000001, 49.271743400000005], [-123.1373162, 49.271849100000004], [-123.13730100000001, 49.271905700000005], [-123.1372884, 49.2719351], [-123.1372412, 49.2720063], [-123.13704320000001, 49.2722471], [-123.13705560000001, 49.2723692], [-123.13717460000001, 49.2724027], [-123.1371266, 49.272519700000004], [-123.13689240000001, 49.272508800000004], [-123.13679680000001, 49.272762300000004], [-123.13685500000001, 49.2727717], [-123.13692680000001, 49.272875000000006], [-123.13647830000001, 49.273107200000005], [-123.13637700000001, 49.273026800000004], [-123.13606290000001, 49.2730292], [-123.13601150000001, 49.273029300000005], [-123.13592560000001, 49.273058000000006], [-123.13532060000001, 49.273082900000006], [-123.13509040000001, 49.2730881], [-123.1349921, 49.2730752], [-123.13493580000001, 49.2730547], [-123.1348518, 49.273008600000004], [-123.13459390000001, 49.2727732], [-123.13459130000001, 49.2727378], [-123.1346721, 49.272701600000005], [-123.134296, 49.272413], [-123.13417700000001, 49.2724757], [-123.13414590000001, 49.2724546], [-123.1339674, 49.27233510000001], [-123.1338843, 49.2723054], [-123.13381740000001, 49.2722659], [-123.133672, 49.272181700000004], [-123.13353850000001, 49.2720819], [-123.1335794, 49.2720446], [-123.13236930000001, 49.2711223], [-123.13241160000001, 49.271098200000004], [-123.1321243, 49.2708645], [-123.1319363, 49.2709647], [-123.1318621, 49.2709102], [-123.13166170000001, 49.270726], [-123.1316508, 49.270675100000005], [-123.13178710000001, 49.2706078], [-123.13094400000001, 49.269922300000005], [-123.1309068, 49.269894300000004], [-123.13055650000001, 49.269609100000004], [-123.130571, 49.2691955], [-123.13057280000001, 49.269192000000004], [-123.13075380000001, 49.269065700000006], [-123.1307783, 49.2685344], [-123.13070440000001, 49.268525700000005], [-123.13065390000001, 49.2684749], [-123.130654, 49.2684313], [-123.13068460000001, 49.2683954], [-123.1307687, 49.268377400000006], [-123.13089670000001, 49.268379100000004], [-123.1311883, 49.2684836], [-123.1313827, 49.2685297], [-123.132023, 49.2685843], [-123.1321973, 49.2685936], [-123.13269430000001, 49.2685923], [-123.1332917, 49.2688489], [-123.1333979, 49.2688995], [-123.1339037, 49.268978600000004], [-123.13401180000001, 49.268846], [-123.1341333, 49.268613300000005], [-123.13412100000001, 49.268522700000005], [-123.13470140000001, 49.268593], [-123.1349481, 49.268613300000005], [-123.13512630000001, 49.268710500000005], [-123.13539730000001, 49.268867900000004], [-123.1355463, 49.2690828], [-123.13553660000001, 49.26917460000001], [-123.1354943, 49.269327000000004], [-123.13557960000001, 49.269355000000004], [-123.1356336, 49.269390300000005], [-123.13569050000001, 49.2694473], [-123.13575080000001, 49.269533200000005], [-123.13620680000001, 49.2698258], [-123.1366227, 49.2699846], [-123.1370741, 49.2701964]]]}}]}