{
"type": "FeatureCollection",
"name": "granville_island",
"features": [
{ "type": "Feature", "properties": { }, "geometry": { "type": "Polygon", "coordinates": [ [ [ -123.143928825686402, 49.270411296110403 ], [ -123.144010629502134, 49.27055074202584 ], [ -123.144027735399902, 49.270597141039971 ], [ -123.14421573837447, 49.271799046311749 ], [ -123.144211151095334, 49.271890746570982 ], [ -123.144132783601805, 49.272436449516448 ], [ -123.144107597765441, 49.272542150971653 ], [ -123.144086025080099, 49.272627310799848 ], [ -123.144070832590174, 49.272683911675742 ], [ -123.143935822382218, 49.273072408097036 ], [ -123.143813246022148, 49.27356857874198 ], [ -123.143765260603629, 49.27368558146248 ], [ -123.143492153404097, 49.274159306545414 ], [ -123.143424856846465, 49.274341444399091 ], [ -123.142885539870889, 49.275117090430733 ], [ -123.142132289070517, 49.275812252301563 ], [ -123.141192140254276, 49.276401971457425 ], [ -123.140743628367488, 49.276634187881868 ], [ -123.139625368620912, 49.277105736654264 ], [ -123.138389203994123, 49.277427505843875 ], [ -123.137081445974076, 49.277587440276214 ], [ -123.135751090406146, 49.277579547869685 ], [ -123.135703645667419, 49.277573161178815 ], [ -123.135557786350248, 49.277577809083986 ], [ -123.135327565458397, 49.277583009570634 ], [ -123.133738635832742, 49.277497865508288 ], [ -123.133640327417183, 49.277484964375404 ], [ -123.132616431284703, 49.277295643898562 ], [ -123.13164946394194, 49.277005205440773 ], [ -123.131593160847743, 49.27698470382871 ], [ -123.130518336872782, 49.276500581673929 ], [ -123.130434335125415, 49.276454478491637 ], [ -123.129302144657231, 49.275655075944492 ], [ -123.129279266770553, 49.275644455523036 ], [ -123.129236959655671, 49.275619474643584 ], [ -123.12911636401445, 49.27554963494876 ], [ -123.12849961586123, 49.275143832443256 ], [ -123.128366118279189, 49.275044026516625 ], [ -123.127906452651899, 49.274625499824552 ], [ -123.127826062472607, 49.274564224364447 ], [ -123.127764220754301, 49.274539032233633 ], [ -123.126803891599167, 49.273956363610111 ], [ -123.126729692753599, 49.273901860341638 ], [ -123.126262467135874, 49.273518463454209 ], [ -123.12606207738277, 49.27333425381763 ], [ -123.12553280840595, 49.272698411369802 ], [ -123.125198950448862, 49.272426573920463 ], [ -123.124531181121554, 49.27177319562643 ], [ -123.124047464941214, 49.271053721877578 ], [ -123.123762569225008, 49.270290129675743 ], [ -123.123685186693109, 49.269505742634408 ], [ -123.123699744106133, 49.269092143444006 ], [ -123.123787320013307, 49.2685119258784 ], [ -123.123780930663827, 49.268467945198012 ], [ -123.123781036720203, 49.268424345199122 ], [ -123.123880906384059, 49.267667530669918 ], [ -123.124173978307866, 49.266932508790198 ], [ -123.12465188446248, 49.266240245585948 ], [ -123.124682487468192, 49.266204347159459 ], [ -123.125407291648045, 49.265514150192537 ], [ -123.126315039426771, 49.264923850427692 ], [ -123.127374257374839, 49.2644539109154 ], [ -123.128548224612032, 49.264120621838501 ], [ -123.128632318130087, 49.264102623385476 ], [ -123.129755948928405, 49.263928905356835 ], [ -123.130908156068244, 49.263880731149534 ], [ -123.131036144441126, 49.263882431006202 ], [ -123.132667838561574, 49.264033420948692 ], [ -123.132956394950071, 49.264109027536094 ], [ -123.133971966924761, 49.264026163075634 ], [ -123.135371818292668, 49.264100220937308 ], [ -123.135756383809934, 49.26414680107856 ], [ -123.135805508240452, 49.264150843298125 ], [ -123.137077359195345, 49.264337000261982 ], [ -123.138272655450777, 49.264676932795425 ], [ -123.139348419308973, 49.265158418921224 ], [ -123.139526615482396, 49.265255612196498 ], [ -123.139688392132001, 49.265346671317843 ], [ -123.13995938817628, 49.265504060713305 ], [ -123.140928595437444, 49.266198396910845 ], [ -123.141402767861365, 49.266727092274053 ], [ -123.142089418772969, 49.267121155149027 ], [ -123.142908135470208, 49.267818659748229 ], [ -123.143503781905437, 49.268607093697391 ], [ -123.143853571343769, 49.26945630968747 ], [ -123.1439441154305, 49.270333834714521 ], [ -123.143928825686402, 49.270411296110403 ] ] ] } }
]
}
