{
"type": "FeatureCollection",
"name": "Somerset_driving_boundary",
"crs": { "type": "name", "properties": { "name": "urn:ogc:def:crs:OGC:1.3:CRS84" } },
"features": [
{ "type": "Feature", "properties": { "name": "Somerset", "visible": null, "admin_level": 8, "boundary": "administrative", "id": 56153155, "timestamp": 1482865872, "version": 5, "tags": { "place": "town", "source": "TIGER/Line® 2008 Place Shapefiles (http://www.census.gov/geo/www/tiger/)", "type": "boundary", "wikidata": "Q2303714", "wikipedia": "en:Somerset, Kentucky" }, "osm_type": "relation", "operator": null, "ref": null, "website": null, "border_type": "city", "start_date": null, "changeset": 0.0 }, "geometry": { "type": "Polygon", "coordinates": [ [ [ -84.603302001953125, 37.059299468994141 ], [ -84.603492736816406, 37.060146331787109 ], [ -84.603569030761719, 37.060501098632812 ], [ -84.603691101074219, 37.061023712158203 ], [ -84.603790283203125, 37.061473846435547 ], [ -84.603805541992188, 37.061603546142578 ], [ -84.603813171386719, 37.061798095703125 ], [ -84.603805541992188, 37.061862945556641 ], [ -84.603790283203125, 37.061931610107422 ], [ -84.603713989257812, 37.062171936035156 ], [ -84.603630065917969, 37.062328338623047 ], [ -84.603477478027344, 37.062580108642578 ], [ -84.603385925292969, 37.062702178955078 ], [ -84.603286743164062, 37.062808990478516 ], [ -84.603134155273438, 37.062942504882812 ], [ -84.603118896484375, 37.062957763671875 ], [ -84.603080749511719, 37.062999725341797 ], [ -84.603065490722656, 37.063014984130859 ], [ -84.603004455566406, 37.063087463378906 ], [ -84.602996826171875, 37.0631103515625 ], [ -84.602981567382812, 37.063148498535156 ], [ -84.602981567382812, 37.063213348388672 ], [ -84.603004455566406, 37.063304901123047 ], [ -84.603034973144531, 37.063369750976562 ], [ -84.603248596191406, 37.063777923583984 ], [ -84.603279113769531, 37.063854217529297 ], [ -84.60357666015625, 37.063789367675781 ], [ -84.604415893554688, 37.063594818115234 ], [ -84.606704711914062, 37.063037872314453 ], [ -84.607406616210938, 37.064777374267578 ], [ -84.607872009277344, 37.066017150878906 ], [ -84.608894348144531, 37.06878662109375 ], [ -84.608909606933594, 37.068820953369141 ], [ -84.609054565429688, 37.069187164306641 ], [ -84.609428405761719, 37.070102691650391 ], [ -84.608917236328125, 37.0703125 ], [ -84.608665466308594, 37.070369720458984 ], [ -84.608489990234375, 37.070411682128906 ], [ -84.607162475585938, 37.070682525634766 ], [ -84.606208801269531, 37.070976257324219 ], [ -84.606246948242188, 37.071216583251953 ], [ -84.606353759765625, 37.071678161621094 ], [ -84.605888366699219, 37.072242736816406 ], [ -84.605484008789062, 37.072902679443359 ], [ -84.604789733886719, 37.073707580566406 ], [ -84.604560852050781, 37.074020385742188 ], [ -84.603782653808594, 37.075153350830078 ], [ -84.602767944335938, 37.076564788818359 ], [ -84.601226806640625, 37.077312469482422 ], [ -84.594947814941406, 37.080337524414062 ], [ -84.592041015625, 37.079963684082031 ], [ -84.589790344238281, 37.074607849121094 ], [ -84.58782958984375, 37.074970245361328 ], [ -84.586967468261719, 37.072795867919922 ], [ -84.58685302734375, 37.072963714599609 ], [ -84.586715698242188, 37.073085784912109 ], [ -84.586563110351562, 37.073108673095703 ], [ -84.586402893066406, 37.073051452636719 ], [ -84.586227416992188, 37.072940826416016 ], [ -84.586006164550781, 37.072845458984375 ], [ -84.585914611816406, 37.072731018066406 ], [ -84.585052490234375, 37.072811126708984 ], [ -84.584869384765625, 37.072818756103516 ], [ -84.584800720214844, 37.075248718261719 ], [ -84.58294677734375, 37.076919555664062 ], [ -84.583045959472656, 37.080238342285156 ], [ -84.582527160644531, 37.079631805419922 ], [ -84.582145690917969, 37.079185485839844 ], [ -84.581779479980469, 37.078773498535156 ], [ -84.580986022949219, 37.078582763671875 ], [ -84.580390930175781, 37.07977294921875 ], [ -84.580184936523438, 37.080047607421875 ], [ -84.580192565917969, 37.080287933349609 ], [ -84.580192565917969, 37.080318450927734 ], [ -84.580207824707031, 37.080478668212891 ], [ -84.58038330078125, 37.080970764160156 ], [ -84.580459594726562, 37.081077575683594 ], [ -84.58062744140625, 37.081268310546875 ], [ -84.580802917480469, 37.081516265869141 ], [ -84.580917358398438, 37.081676483154297 ], [ -84.581436157226562, 37.082290649414062 ], [ -84.581474304199219, 37.082355499267578 ], [ -84.581474304199219, 37.082408905029297 ], [ -84.581428527832031, 37.082553863525391 ], [ -84.58160400390625, 37.082767486572266 ], [ -84.581748962402344, 37.082950592041016 ], [ -84.579788208007812, 37.083423614501953 ], [ -84.575531005859375, 37.084388732910156 ], [ -84.575225830078125, 37.084480285644531 ], [ -84.575210571289062, 37.084484100341797 ], [ -84.575111389160156, 37.084285736083984 ], [ -84.573623657226562, 37.080848693847656 ], [ -84.572624206542969, 37.079921722412109 ], [ -84.569244384765625, 37.078891754150391 ], [ -84.568817138671875, 37.078826904296875 ], [ -84.569313049316406, 37.077110290527344 ], [ -84.565773010253906, 37.078010559082031 ], [ -84.566139221191406, 37.079093933105469 ], [ -84.566482543945312, 37.080032348632812 ], [ -84.565559387207031, 37.080818176269531 ], [ -84.564842224121094, 37.081447601318359 ], [ -84.567047119140625, 37.0836181640625 ], [ -84.565818786621094, 37.086673736572266 ], [ -84.567878723144531, 37.087009429931641 ], [ -84.571121215820312, 37.087291717529297 ], [ -84.571296691894531, 37.088092803955078 ], [ -84.577430725097656, 37.091098785400391 ], [ -84.582649230957031, 37.095821380615234 ], [ -84.581130981445312, 37.096622467041016 ], [ -84.581207275390625, 37.096637725830078 ], [ -84.582061767578125, 37.097648620605469 ], [ -84.582405090332031, 37.098411560058594 ], [ -84.582283020019531, 37.098461151123047 ], [ -84.582122802734375, 37.098682403564453 ], [ -84.582427978515625, 37.099281311035156 ], [ -84.582542419433594, 37.099468231201172 ], [ -84.581520080566406, 37.10009765625 ], [ -84.581474304199219, 37.100128173828125 ], [ -84.58135986328125, 37.100173950195312 ], [ -84.580978393554688, 37.100334167480469 ], [ -84.580726623535156, 37.100490570068359 ], [ -84.579856872558594, 37.101028442382812 ], [ -84.579429626464844, 37.101303100585938 ], [ -84.578804016113281, 37.1016845703125 ], [ -84.577651977539062, 37.102218627929688 ], [ -84.577423095703125, 37.102329254150391 ], [ -84.577827453613281, 37.10272216796875 ], [ -84.578155517578125, 37.102508544921875 ], [ -84.578895568847656, 37.103004455566406 ], [ -84.580009460449219, 37.104217529296875 ], [ -84.582931518554688, 37.106609344482422 ], [ -84.585411071777344, 37.105972290039062 ], [ -84.587272644042969, 37.105659484863281 ], [ -84.58721923828125, 37.105785369873047 ], [ -84.587127685546875, 37.105987548828125 ], [ -84.587120056152344, 37.106147766113281 ], [ -84.587234497070312, 37.1063232421875 ], [ -84.586944580078125, 37.106327056884766 ], [ -84.586311340332031, 37.106502532958984 ], [ -84.586936950683594, 37.106880187988281 ], [ -84.58697509765625, 37.107151031494141 ], [ -84.587043762207031, 37.107448577880859 ], [ -84.587173461914062, 37.107639312744141 ], [ -84.587425231933594, 37.107921600341797 ], [ -84.587509155273438, 37.108165740966797 ], [ -84.587509155273438, 37.108463287353516 ], [ -84.587532043457031, 37.108829498291016 ], [ -84.588424682617188, 37.108833312988281 ], [ -84.589286804199219, 37.108806610107422 ], [ -84.589317321777344, 37.108592987060547 ], [ -84.589347839355469, 37.108192443847656 ], [ -84.589378356933594, 37.107753753662109 ], [ -84.589378356933594, 37.107566833496094 ], [ -84.59149169921875, 37.107757568359375 ], [ -84.591537475585938, 37.107196807861328 ], [ -84.594001770019531, 37.107830047607422 ], [ -84.599433898925781, 37.109066009521484 ], [ -84.600578308105469, 37.109348297119141 ], [ -84.600791931152344, 37.109420776367188 ], [ -84.600105285644531, 37.110435485839844 ], [ -84.600250244140625, 37.110420227050781 ], [ -84.601493835449219, 37.11053466796875 ], [ -84.601959228515625, 37.1104736328125 ], [ -84.603126525878906, 37.110561370849609 ], [ -84.603500366210938, 37.110710144042969 ], [ -84.603584289550781, 37.110755920410156 ], [ -84.604843139648438, 37.109535217285156 ], [ -84.604965209960938, 37.109554290771484 ], [ -84.606620788574219, 37.109394073486328 ], [ -84.609603881835938, 37.109790802001953 ], [ -84.610321044921875, 37.111545562744141 ], [ -84.610588073730469, 37.111457824707031 ], [ -84.610671997070312, 37.111698150634766 ], [ -84.608627319335938, 37.111930847167969 ], [ -84.607994079589844, 37.111934661865234 ], [ -84.607368469238281, 37.111988067626953 ], [ -84.607109069824219, 37.112003326416016 ], [ -84.606971740722656, 37.112022399902344 ], [ -84.606796264648438, 37.112037658691406 ], [ -84.60638427734375, 37.112178802490234 ], [ -84.605819702148438, 37.112293243408203 ], [ -84.605323791503906, 37.113903045654297 ], [ -84.605140686035156, 37.114662170410156 ], [ -84.604232788085938, 37.114490509033203 ], [ -84.603599548339844, 37.113323211669922 ], [ -84.603797912597656, 37.113201141357422 ], [ -84.603851318359375, 37.113079071044922 ], [ -84.602989196777344, 37.112384796142578 ], [ -84.602302551269531, 37.111881256103516 ], [ -84.601600646972656, 37.111660003662109 ], [ -84.600334167480469, 37.111560821533203 ], [ -84.599662780761719, 37.111503601074219 ], [ -84.599281311035156, 37.112270355224609 ], [ -84.59881591796875, 37.112842559814453 ], [ -84.598136901855469, 37.112567901611328 ], [ -84.597633361816406, 37.113426208496094 ], [ -84.59722900390625, 37.114124298095703 ], [ -84.599227905273438, 37.115234375 ], [ -84.59857177734375, 37.115642547607422 ], [ -84.597801208496094, 37.115989685058594 ], [ -84.598464965820312, 37.116241455078125 ], [ -84.59912109375, 37.116401672363281 ], [ -84.599868774414062, 37.116493225097656 ], [ -84.600517272949219, 37.116184234619141 ], [ -84.600326538085938, 37.115642547607422 ], [ -84.600311279296875, 37.115310668945312 ], [ -84.600143432617188, 37.114791870117188 ], [ -84.600028991699219, 37.114692687988281 ], [ -84.599685668945312, 37.114284515380859 ], [ -84.59979248046875, 37.114265441894531 ], [ -84.600563049316406, 37.114070892333984 ], [ -84.600982666015625, 37.113990783691406 ], [ -84.601219177246094, 37.113967895507812 ], [ -84.601310729980469, 37.113967895507812 ], [ -84.601387023925781, 37.113983154296875 ], [ -84.601448059082031, 37.114013671875 ], [ -84.601486206054688, 37.114044189453125 ], [ -84.601516723632812, 37.114112854003906 ], [ -84.601943969726562, 37.115253448486328 ], [ -84.60223388671875, 37.1158447265625 ], [ -84.602325439453125, 37.116111755371094 ], [ -84.602340698242188, 37.116249084472656 ], [ -84.602310180664062, 37.116664886474609 ], [ -84.602317810058594, 37.116924285888672 ], [ -84.602348327636719, 37.117149353027344 ], [ -84.602371215820312, 37.117244720458984 ], [ -84.602401733398438, 37.117294311523438 ], [ -84.602447509765625, 37.117351531982422 ], [ -84.602508544921875, 37.117374420166016 ], [ -84.602561950683594, 37.117385864257812 ], [ -84.602790832519531, 37.117366790771484 ], [ -84.604591369628906, 37.1170654296875 ], [ -84.605133056640625, 37.116981506347656 ], [ -84.605537414550781, 37.116916656494141 ], [ -84.606117248535156, 37.119300842285156 ], [ -84.606277465820312, 37.119937896728516 ], [ -84.606338500976562, 37.120063781738281 ], [ -84.60736083984375, 37.119682312011719 ], [ -84.608474731445312, 37.11895751953125 ], [ -84.610496520996094, 37.119705200195312 ], [ -84.610862731933594, 37.119819641113281 ], [ -84.611160278320312, 37.116596221923828 ], [ -84.611412048339844, 37.116607666015625 ], [ -84.612808227539062, 37.116725921630859 ], [ -84.612953186035156, 37.116741180419922 ], [ -84.612968444824219, 37.115802764892578 ], [ -84.612968444824219, 37.115642547607422 ], [ -84.613014221191406, 37.113132476806641 ], [ -84.61431884765625, 37.112884521484375 ], [ -84.614311218261719, 37.112987518310547 ], [ -84.614051818847656, 37.114463806152344 ], [ -84.614028930664062, 37.114597320556641 ], [ -84.61395263671875, 37.114967346191406 ], [ -84.613815307617188, 37.115516662597656 ], [ -84.613670349121094, 37.116043090820312 ], [ -84.613578796386719, 37.116409301757812 ], [ -84.613479614257812, 37.116790771484375 ], [ -84.613441467285156, 37.116996765136719 ], [ -84.6134033203125, 37.117294311523438 ], [ -84.6134033203125, 37.117389678955078 ], [ -84.614646911621094, 37.117607116699219 ], [ -84.614784240722656, 37.116680145263672 ], [ -84.614898681640625, 37.116626739501953 ], [ -84.615089416503906, 37.116512298583984 ], [ -84.615707397460938, 37.115589141845703 ], [ -84.615745544433594, 37.115558624267578 ], [ -84.620948791503906, 37.116085052490234 ], [ -84.621116638183594, 37.116104125976562 ], [ -84.621017456054688, 37.115852355957031 ], [ -84.619598388671875, 37.112346649169922 ], [ -84.62091064453125, 37.112197875976562 ], [ -84.623115539550781, 37.111946105957031 ], [ -84.623954772949219, 37.111839294433594 ], [ -84.623382568359375, 37.110496520996094 ], [ -84.623329162597656, 37.110332489013672 ], [ -84.62274169921875, 37.108997344970703 ], [ -84.624221801757812, 37.108619689941406 ], [ -84.624382019042969, 37.108585357666016 ], [ -84.624839782714844, 37.109466552734375 ], [ -84.626655578613281, 37.109046936035156 ], [ -84.626220703125, 37.108127593994141 ], [ -84.626632690429688, 37.108001708984375 ], [ -84.627998352050781, 37.107563018798828 ], [ -84.628158569335938, 37.107486724853516 ], [ -84.628074645996094, 37.107303619384766 ], [ -84.628288269042969, 37.107276916503906 ], [ -84.628494262695312, 37.107223510742188 ], [ -84.629096984863281, 37.107006072998047 ], [ -84.629661560058594, 37.106815338134766 ], [ -84.630874633789062, 37.108604431152344 ], [ -84.63177490234375, 37.110614776611328 ], [ -84.632545471191406, 37.110591888427734 ], [ -84.633171081542969, 37.110889434814453 ], [ -84.634559631347656, 37.111419677734375 ], [ -84.634552001953125, 37.111148834228516 ], [ -84.634521484375, 37.110752105712891 ], [ -84.634391784667969, 37.109390258789062 ], [ -84.634376525878906, 37.109256744384766 ], [ -84.63433837890625, 37.109138488769531 ], [ -84.634269714355469, 37.108989715576172 ], [ -84.634193420410156, 37.108913421630859 ], [ -84.634147644042969, 37.108875274658203 ], [ -84.633819580078125, 37.108707427978516 ], [ -84.633712768554688, 37.108631134033203 ], [ -84.633110046386719, 37.108058929443359 ], [ -84.63238525390625, 37.107383728027344 ], [ -84.632064819335938, 37.107036590576172 ], [ -84.631599426269531, 37.1065673828125 ], [ -84.631484985351562, 37.106479644775391 ], [ -84.631721496582031, 37.106174468994141 ], [ -84.631767272949219, 37.106163024902344 ], [ -84.632537841796875, 37.105983734130859 ], [ -84.632919311523438, 37.105770111083984 ], [ -84.633155822753906, 37.105281829833984 ], [ -84.633346557617188, 37.105396270751953 ], [ -84.635536193847656, 37.105831146240234 ], [ -84.638336181640625, 37.105308532714844 ], [ -84.636421203613281, 37.102092742919922 ], [ -84.636177062988281, 37.10211181640625 ], [ -84.631935119628906, 37.102226257324219 ], [ -84.631500244140625, 37.101249694824219 ], [ -84.630531311035156, 37.1002197265625 ], [ -84.630424499511719, 37.099716186523438 ], [ -84.630264282226562, 37.099353790283203 ], [ -84.630126953125, 37.098995208740234 ], [ -84.629974365234375, 37.098762512207031 ], [ -84.629524230957031, 37.097640991210938 ], [ -84.628807067871094, 37.097583770751953 ], [ -84.628524780273438, 37.097034454345703 ], [ -84.628799438476562, 37.096382141113281 ], [ -84.629852294921875, 37.095375061035156 ], [ -84.630317687988281, 37.095012664794922 ], [ -84.630569458007812, 37.094707489013672 ], [ -84.630714416503906, 37.094524383544922 ], [ -84.630607604980469, 37.094402313232422 ], [ -84.630096435546875, 37.093826293945312 ], [ -84.630195617675781, 37.093708038330078 ], [ -84.630226135253906, 37.093761444091797 ], [ -84.630294799804688, 37.093833923339844 ], [ -84.630393981933594, 37.093902587890625 ], [ -84.630455017089844, 37.093925476074219 ], [ -84.630523681640625, 37.093948364257812 ], [ -84.63067626953125, 37.093978881835938 ], [ -84.631111145019531, 37.094032287597656 ], [ -84.631248474121094, 37.094051361083984 ], [ -84.631439208984375, 37.094097137451172 ], [ -84.631629943847656, 37.094165802001953 ], [ -84.631797790527344, 37.094249725341797 ], [ -84.631866455078125, 37.094295501708984 ], [ -84.631950378417969, 37.094348907470703 ], [ -84.632034301757812, 37.094417572021484 ], [ -84.632225036621094, 37.094573974609375 ], [ -84.632369995117188, 37.094684600830078 ], [ -84.632514953613281, 37.094791412353516 ], [ -84.632774353027344, 37.094947814941406 ], [ -84.633262634277344, 37.095237731933594 ], [ -84.634010314941406, 37.095058441162109 ], [ -84.636039733886719, 37.09478759765625 ], [ -84.636154174804688, 37.095680236816406 ], [ -84.636848449707031, 37.095546722412109 ], [ -84.637046813964844, 37.095184326171875 ], [ -84.638023376464844, 37.095180511474609 ], [ -84.638282775878906, 37.094257354736328 ], [ -84.638603210449219, 37.094417572021484 ], [ -84.638816833496094, 37.094310760498047 ], [ -84.638816833496094, 37.094295501708984 ], [ -84.638832092285156, 37.094207763671875 ], [ -84.638900756835938, 37.094085693359375 ], [ -84.638893127441406, 37.093883514404297 ], [ -84.63824462890625, 37.093971252441406 ], [ -84.638420104980469, 37.093551635742188 ], [ -84.638404846191406, 37.09344482421875 ], [ -84.638381958007812, 37.093307495117188 ], [ -84.638526916503906, 37.092853546142578 ], [ -84.638771057128906, 37.093036651611328 ], [ -84.638908386230469, 37.093101501464844 ], [ -84.638984680175781, 37.093124389648438 ], [ -84.639053344726562, 37.0931396484375 ], [ -84.639122009277344, 37.093147277832031 ], [ -84.639251708984375, 37.093151092529297 ], [ -84.639396667480469, 37.093151092529297 ], [ -84.639678955078125, 37.093135833740234 ], [ -84.639862060546875, 37.093128204345703 ], [ -84.64007568359375, 37.093128204345703 ], [ -84.640472412109375, 37.093093872070312 ], [ -84.641410827636719, 37.090595245361328 ], [ -84.642227172851562, 37.090545654296875 ], [ -84.642570495605469, 37.089603424072266 ], [ -84.642822265625, 37.089576721191406 ], [ -84.643043518066406, 37.089550018310547 ], [ -84.643692016601562, 37.089458465576172 ], [ -84.6439208984375, 37.089424133300781 ], [ -84.644271850585938, 37.08837890625 ], [ -84.646064758300781, 37.088237762451172 ], [ -84.647438049316406, 37.088127136230469 ], [ -84.647560119628906, 37.086601257324219 ], [ -84.647186279296875, 37.0858154296875 ], [ -84.645187377929688, 37.084976196289062 ], [ -84.645271301269531, 37.083667755126953 ], [ -84.643089294433594, 37.083549499511719 ], [ -84.642967224121094, 37.083904266357422 ], [ -84.63916015625, 37.083740234375 ], [ -84.634162902832031, 37.083648681640625 ], [ -84.631797790527344, 37.083797454833984 ], [ -84.631874084472656, 37.082618713378906 ], [ -84.629524230957031, 37.081417083740234 ], [ -84.629180908203125, 37.081485748291016 ], [ -84.628662109375, 37.081661224365234 ], [ -84.627937316894531, 37.081825256347656 ], [ -84.627693176269531, 37.081813812255859 ], [ -84.626556396484375, 37.081062316894531 ], [ -84.626327514648438, 37.079681396484375 ], [ -84.626312255859375, 37.079582214355469 ], [ -84.625732421875, 37.076122283935547 ], [ -84.624824523925781, 37.074657440185547 ], [ -84.624069213867188, 37.073413848876953 ], [ -84.624656677246094, 37.073226928710938 ], [ -84.62445068359375, 37.072891235351562 ], [ -84.626693725585938, 37.071537017822266 ], [ -84.626953125, 37.071384429931641 ], [ -84.628204345703125, 37.070625305175781 ], [ -84.629287719726562, 37.069969177246094 ], [ -84.630523681640625, 37.069221496582031 ], [ -84.6307373046875, 37.069091796875 ], [ -84.631721496582031, 37.068500518798828 ], [ -84.632255554199219, 37.068191528320312 ], [ -84.63262939453125, 37.067985534667969 ], [ -84.633247375488281, 37.067642211914062 ], [ -84.633819580078125, 37.067317962646484 ], [ -84.634002685546875, 37.067207336425781 ], [ -84.634269714355469, 37.067035675048828 ], [ -84.634735107421875, 37.066726684570312 ], [ -84.635261535644531, 37.066349029541016 ], [ -84.635452270507812, 37.066211700439453 ], [ -84.635627746582031, 37.066074371337891 ], [ -84.636146545410156, 37.065650939941406 ], [ -84.63818359375, 37.068794250488281 ], [ -84.639602661132812, 37.068321228027344 ], [ -84.637298583984375, 37.064712524414062 ], [ -84.638374328613281, 37.063831329345703 ], [ -84.638008117675781, 37.062671661376953 ], [ -84.638160705566406, 37.062625885009766 ], [ -84.639472961425781, 37.062152862548828 ], [ -84.639442443847656, 37.061935424804688 ], [ -84.640373229980469, 37.062026977539062 ], [ -84.640060424804688, 37.061332702636719 ], [ -84.639869689941406, 37.060939788818359 ], [ -84.639381408691406, 37.059883117675781 ], [ -84.638969421386719, 37.059032440185547 ], [ -84.638572692871094, 37.058189392089844 ], [ -84.6383056640625, 37.057571411132812 ], [ -84.638206481933594, 37.057376861572266 ], [ -84.634719848632812, 37.055973052978516 ], [ -84.636489868164062, 37.054805755615234 ], [ -84.632217407226562, 37.052330017089844 ], [ -84.631477355957031, 37.052787780761719 ], [ -84.630485534667969, 37.053462982177734 ], [ -84.629081726074219, 37.051277160644531 ], [ -84.628173828125, 37.051681518554688 ], [ -84.627906799316406, 37.051231384277344 ], [ -84.627769470214844, 37.05096435546875 ], [ -84.628288269042969, 37.050750732421875 ], [ -84.628768920898438, 37.050548553466797 ], [ -84.6292724609375, 37.050312042236328 ], [ -84.629348754882812, 37.050277709960938 ], [ -84.629508972167969, 37.050193786621094 ], [ -84.629638671875, 37.050125122070312 ], [ -84.6297607421875, 37.050041198730469 ], [ -84.630332946777344, 37.049732208251953 ], [ -84.631050109863281, 37.049270629882812 ], [ -84.631088256835938, 37.049480438232422 ], [ -84.631118774414062, 37.049739837646484 ], [ -84.631141662597656, 37.049911499023438 ], [ -84.631217956542969, 37.050567626953125 ], [ -84.631240844726562, 37.050785064697266 ], [ -84.631820678710938, 37.050212860107422 ], [ -84.631668090820312, 37.048824310302734 ], [ -84.63177490234375, 37.048736572265625 ], [ -84.63201904296875, 37.048519134521484 ], [ -84.632194519042969, 37.048351287841797 ], [ -84.6324462890625, 37.048103332519531 ], [ -84.632484436035156, 37.048065185546875 ], [ -84.632560729980469, 37.047988891601562 ], [ -84.631362915039062, 37.0474853515625 ], [ -84.632469177246094, 37.046791076660156 ], [ -84.630897521972656, 37.044647216796875 ], [ -84.630744934082031, 37.044441223144531 ], [ -84.62847900390625, 37.044055938720703 ], [ -84.628410339355469, 37.043895721435547 ], [ -84.628097534179688, 37.043178558349609 ], [ -84.628707885742188, 37.042961120605469 ], [ -84.628593444824219, 37.042736053466797 ], [ -84.627861022949219, 37.042884826660156 ], [ -84.62738037109375, 37.042881011962891 ], [ -84.627357482910156, 37.042598724365234 ], [ -84.627349853515625, 37.042491912841797 ], [ -84.626976013183594, 37.042518615722656 ], [ -84.626983642578125, 37.041965484619141 ], [ -84.627120971679688, 37.041946411132812 ], [ -84.628120422363281, 37.041721343994141 ], [ -84.62811279296875, 37.041488647460938 ], [ -84.628128051757812, 37.041297912597656 ], [ -84.627731323242188, 37.041179656982422 ], [ -84.62646484375, 37.041641235351562 ], [ -84.626495361328125, 37.041313171386719 ], [ -84.626571655273438, 37.0404052734375 ], [ -84.626625061035156, 37.039684295654297 ], [ -84.626632690429688, 37.039592742919922 ], [ -84.626708984375, 37.038761138916016 ], [ -84.626739501953125, 37.038291931152344 ], [ -84.626998901367188, 37.038295745849609 ], [ -84.627021789550781, 37.038295745849609 ], [ -84.627716064453125, 37.038303375244141 ], [ -84.627723693847656, 37.037677764892578 ], [ -84.627517700195312, 37.037677764892578 ], [ -84.627418518066406, 37.037677764892578 ], [ -84.627082824707031, 37.037681579589844 ], [ -84.626800537109375, 37.037685394287109 ], [ -84.626861572265625, 37.037120819091797 ], [ -84.626884460449219, 37.036968231201172 ], [ -84.626876831054688, 37.03692626953125 ], [ -84.626960754394531, 37.036300659179688 ], [ -84.627052307128906, 37.035614013671875 ], [ -84.627059936523438, 37.035564422607422 ], [ -84.628814697265625, 37.035831451416016 ], [ -84.628936767578125, 37.035846710205078 ], [ -84.630500793457031, 37.036098480224609 ], [ -84.630523681640625, 37.035545349121094 ], [ -84.627593994140625, 37.035186767578125 ], [ -84.627296447753906, 37.035133361816406 ], [ -84.627113342285156, 37.035140991210938 ], [ -84.6273193359375, 37.033527374267578 ], [ -84.627349853515625, 37.033256530761719 ], [ -84.627349853515625, 37.033245086669922 ], [ -84.62738037109375, 37.032989501953125 ], [ -84.62738037109375, 37.032943725585938 ], [ -84.627403259277344, 37.032424926757812 ], [ -84.627410888671875, 37.032154083251953 ], [ -84.627403259277344, 37.032096862792969 ], [ -84.627212524414062, 37.032089233398438 ], [ -84.626914978027344, 37.032073974609375 ], [ -84.62640380859375, 37.032054901123047 ], [ -84.62615966796875, 37.032020568847656 ], [ -84.625457763671875, 37.031929016113281 ], [ -84.622238159179688, 37.031352996826172 ], [ -84.622100830078125, 37.031963348388672 ], [ -84.622306823730469, 37.032779693603516 ], [ -84.622734069824219, 37.033699035644531 ], [ -84.622734069824219, 37.034065246582031 ], [ -84.622413635253906, 37.034023284912109 ], [ -84.622146606445312, 37.034145355224609 ], [ -84.62188720703125, 37.034263610839844 ], [ -84.621597290039062, 37.033897399902344 ], [ -84.620536804199219, 37.032554626464844 ], [ -84.619194030761719, 37.032718658447266 ], [ -84.617752075195312, 37.032939910888672 ], [ -84.612960815429688, 37.033626556396484 ], [ -84.610221862792969, 37.034034729003906 ], [ -84.611839294433594, 37.041370391845703 ], [ -84.6124267578125, 37.041290283203125 ], [ -84.614944458007812, 37.04095458984375 ], [ -84.61627197265625, 37.040779113769531 ], [ -84.616729736328125, 37.04071044921875 ], [ -84.616950988769531, 37.040687561035156 ], [ -84.617759704589844, 37.040576934814453 ], [ -84.618293762207031, 37.040500640869141 ], [ -84.618637084960938, 37.040439605712891 ], [ -84.618888854980469, 37.040390014648438 ], [ -84.618721008300781, 37.0391845703125 ], [ -84.61865234375, 37.038700103759766 ], [ -84.618400573730469, 37.036964416503906 ], [ -84.618385314941406, 37.036834716796875 ], [ -84.6185302734375, 37.036899566650391 ], [ -84.622581481933594, 37.037025451660156 ], [ -84.623207092285156, 37.036869049072266 ], [ -84.623291015625, 37.036849975585938 ], [ -84.623703002929688, 37.036777496337891 ], [ -84.624305725097656, 37.036899566650391 ], [ -84.62445068359375, 37.036899566650391 ], [ -84.624610900878906, 37.036903381347656 ], [ -84.626144409179688, 37.036930084228516 ], [ -84.626182556152344, 37.036930084228516 ], [ -84.626190185546875, 37.037158966064453 ], [ -84.626266479492188, 37.038776397705078 ], [ -84.626007080078125, 37.038822174072266 ], [ -84.625205993652344, 37.038993835449219 ], [ -84.625190734863281, 37.039321899414062 ], [ -84.625358581542969, 37.039337158203125 ], [ -84.626075744628906, 37.039371490478516 ], [ -84.626152038574219, 37.039386749267578 ], [ -84.626190185546875, 37.039413452148438 ], [ -84.626167297363281, 37.039768218994141 ], [ -84.62603759765625, 37.041233062744141 ], [ -84.625991821289062, 37.041835784912109 ], [ -84.625984191894531, 37.041885375976562 ], [ -84.623725891113281, 37.041881561279297 ], [ -84.623367309570312, 37.042518615722656 ], [ -84.622360229492188, 37.042446136474609 ], [ -84.621566772460938, 37.042961120605469 ], [ -84.621437072753906, 37.043170928955078 ], [ -84.621475219726562, 37.043449401855469 ], [ -84.621009826660156, 37.043464660644531 ], [ -84.621055603027344, 37.043941497802734 ], [ -84.621589660644531, 37.043949127197266 ], [ -84.621780395507812, 37.044010162353516 ], [ -84.622390747070312, 37.044788360595703 ], [ -84.622467041015625, 37.044883728027344 ], [ -84.622459411621094, 37.04498291015625 ], [ -84.622917175292969, 37.044921875 ], [ -84.623062133789062, 37.045146942138672 ], [ -84.623115539550781, 37.045162200927734 ], [ -84.623481750488281, 37.045284271240234 ], [ -84.622657775878906, 37.046501159667969 ], [ -84.622650146484375, 37.046501159667969 ], [ -84.622528076171875, 37.046504974365234 ], [ -84.622390747070312, 37.046516418457031 ], [ -84.621772766113281, 37.046482086181641 ], [ -84.62017822265625, 37.046665191650391 ], [ -84.620452880859375, 37.047248840332031 ], [ -84.620780944824219, 37.047519683837891 ], [ -84.62060546875, 37.04766845703125 ], [ -84.620285034179688, 37.047969818115234 ], [ -84.619735717773438, 37.047214508056641 ], [ -84.617835998535156, 37.044986724853516 ], [ -84.616722106933594, 37.045883178710938 ], [ -84.613838195800781, 37.048206329345703 ], [ -84.612434387207031, 37.048301696777344 ], [ -84.611625671386719, 37.047954559326172 ], [ -84.611503601074219, 37.047824859619141 ], [ -84.605796813964844, 37.048442840576172 ], [ -84.605636596679688, 37.048454284667969 ], [ -84.605522155761719, 37.050651550292969 ], [ -84.605239868164062, 37.050647735595703 ], [ -84.60504150390625, 37.050655364990234 ], [ -84.604843139648438, 37.050678253173828 ], [ -84.604644775390625, 37.050712585449219 ], [ -84.604446411132812, 37.050758361816406 ], [ -84.60406494140625, 37.050876617431641 ], [ -84.603736877441406, 37.051021575927734 ], [ -84.603507995605469, 37.051143646240234 ], [ -84.603462219238281, 37.051170349121094 ], [ -84.603157043457031, 37.051349639892578 ], [ -84.603034973144531, 37.051189422607422 ], [ -84.602706909179688, 37.051307678222656 ], [ -84.602401733398438, 37.051002502441406 ], [ -84.602096557617188, 37.050693511962891 ], [ -84.601966857910156, 37.050556182861328 ], [ -84.601852416992188, 37.0504150390625 ], [ -84.601753234863281, 37.050277709960938 ], [ -84.601676940917969, 37.050128936767578 ], [ -84.601600646972656, 37.049976348876953 ], [ -84.601547241210938, 37.049823760986328 ], [ -84.601516723632812, 37.049671173095703 ], [ -84.60150146484375, 37.049514770507812 ], [ -84.601493835449219, 37.049362182617188 ], [ -84.601509094238281, 37.049213409423828 ], [ -84.601524353027344, 37.049060821533203 ], [ -84.6015625, 37.048915863037109 ], [ -84.601676940917969, 37.048622131347656 ], [ -84.601715087890625, 37.048473358154297 ], [ -84.60174560546875, 37.048316955566406 ], [ -84.601753234863281, 37.04815673828125 ], [ -84.601753234863281, 37.048015594482422 ], [ -84.601730346679688, 37.047832489013672 ], [ -84.601707458496094, 37.047660827636719 ], [ -84.6016845703125, 37.047569274902344 ], [ -84.596267700195312, 37.049667358398438 ], [ -84.594978332519531, 37.0501708984375 ], [ -84.596145629882812, 37.052051544189453 ], [ -84.596923828125, 37.053314208984375 ], [ -84.594078063964844, 37.054130554199219 ], [ -84.588645935058594, 37.050395965576172 ], [ -84.587471008300781, 37.05072021484375 ], [ -84.586891174316406, 37.050880432128906 ], [ -84.58660888671875, 37.050960540771484 ], [ -84.586402893066406, 37.050815582275391 ], [ -84.586288452148438, 37.050724029541016 ], [ -84.586112976074219, 37.050514221191406 ], [ -84.586769104003906, 37.049877166748047 ], [ -84.586708068847656, 37.049819946289062 ], [ -84.58660888671875, 37.049720764160156 ], [ -84.586456298828125, 37.049613952636719 ], [ -84.586334228515625, 37.049556732177734 ], [ -84.586227416992188, 37.049472808837891 ], [ -84.586074829101562, 37.049411773681641 ], [ -84.585914611816406, 37.049362182617188 ], [ -84.58575439453125, 37.049327850341797 ], [ -84.585655212402344, 37.049312591552734 ], [ -84.585968017578125, 37.049057006835938 ], [ -84.584480285644531, 37.047542572021484 ], [ -84.583389282226562, 37.047714233398438 ], [ -84.583267211914062, 37.047515869140625 ], [ -84.580894470214844, 37.0479736328125 ], [ -84.580810546875, 37.047786712646484 ], [ -84.580551147460938, 37.047859191894531 ], [ -84.580413818359375, 37.047672271728516 ], [ -84.580474853515625, 37.047569274902344 ], [ -84.580238342285156, 37.047348022460938 ], [ -84.579994201660156, 37.047317504882812 ], [ -84.579963684082031, 37.047145843505859 ], [ -84.579795837402344, 37.047103881835938 ], [ -84.579635620117188, 37.047042846679688 ], [ -84.579483032226562, 37.046962738037109 ], [ -84.57861328125, 37.046413421630859 ], [ -84.577857971191406, 37.045921325683594 ], [ -84.577735900878906, 37.045848846435547 ], [ -84.577613830566406, 37.045799255371094 ], [ -84.577476501464844, 37.045768737792969 ], [ -84.577316284179688, 37.045757293701172 ], [ -84.57696533203125, 37.045761108398438 ], [ -84.576446533203125, 37.045783996582031 ], [ -84.576324462890625, 37.045791625976562 ], [ -84.576286315917969, 37.045852661132812 ], [ -84.576042175292969, 37.046123504638672 ], [ -84.576026916503906, 37.04620361328125 ], [ -84.575607299804688, 37.046676635742188 ], [ -84.574333190917969, 37.047824859619141 ], [ -84.574180603027344, 37.047954559326172 ], [ -84.574234008789062, 37.048007965087891 ], [ -84.57470703125, 37.048484802246094 ], [ -84.577888488769531, 37.05157470703125 ], [ -84.577163696289062, 37.051952362060547 ], [ -84.575920104980469, 37.052608489990234 ], [ -84.575469970703125, 37.054771423339844 ], [ -84.575149536132812, 37.055023193359375 ], [ -84.575630187988281, 37.055656433105469 ], [ -84.576156616210938, 37.056240081787109 ], [ -84.576744079589844, 37.056903839111328 ], [ -84.57769775390625, 37.056449890136719 ], [ -84.579017639160156, 37.055824279785156 ], [ -84.580039978027344, 37.055278778076172 ], [ -84.582733154296875, 37.052654266357422 ], [ -84.585617065429688, 37.051227569580078 ], [ -84.586097717285156, 37.051010131835938 ], [ -84.586288452148438, 37.051124572753906 ], [ -84.586517333984375, 37.051261901855469 ], [ -84.588104248046875, 37.052215576171875 ], [ -84.588821411132812, 37.052642822265625 ], [ -84.592437744140625, 37.054859161376953 ], [ -84.595909118652344, 37.060043334960938 ], [ -84.594093322753906, 37.060661315917969 ], [ -84.588981628417969, 37.062397003173828 ], [ -84.588722229003906, 37.066005706787109 ], [ -84.588592529296875, 37.067241668701172 ], [ -84.588912963867188, 37.06719970703125 ], [ -84.594169616699219, 37.066551208496094 ], [ -84.594955444335938, 37.066585540771484 ], [ -84.59515380859375, 37.066562652587891 ], [ -84.595527648925781, 37.066490173339844 ], [ -84.595695495605469, 37.066440582275391 ], [ -84.595855712890625, 37.066379547119141 ], [ -84.595993041992188, 37.066329956054688 ], [ -84.5963134765625, 37.066192626953125 ], [ -84.596855163574219, 37.065971374511719 ], [ -84.597198486328125, 37.065830230712891 ], [ -84.595947265625, 37.063018798828125 ], [ -84.596168518066406, 37.062973022460938 ], [ -84.596778869628906, 37.062820434570312 ], [ -84.599716186523438, 37.062084197998047 ], [ -84.599494934082031, 37.061500549316406 ], [ -84.599296569824219, 37.06097412109375 ], [ -84.599220275878906, 37.060768127441406 ], [ -84.599136352539062, 37.060531616210938 ], [ -84.598968505859375, 37.060070037841797 ], [ -84.598953247070312, 37.060031890869141 ], [ -84.598731994628906, 37.059429168701172 ], [ -84.598648071289062, 37.059242248535156 ], [ -84.598548889160156, 37.059066772460938 ], [ -84.598373413085938, 37.058773040771484 ], [ -84.599807739257812, 37.057487487792969 ], [ -84.60260009765625, 37.057636260986328 ], [ -84.602737426757812, 37.057834625244141 ], [ -84.602912902832031, 37.058086395263672 ], [ -84.602989196777344, 37.058219909667969 ], [ -84.603050231933594, 37.058353424072266 ], [ -84.603103637695312, 37.058490753173828 ], [ -84.6031494140625, 37.058631896972656 ], [ -84.603172302246094, 37.058719635009766 ], [ -84.603202819824219, 37.058860778808594 ], [ -84.603225708007812, 37.058921813964844 ], [ -84.603302001953125, 37.059299468994141 ] ], [ [ -84.624038696289062, 37.044097900390625 ], [ -84.623977661132812, 37.044254302978516 ], [ -84.623603820800781, 37.044212341308594 ], [ -84.623435974121094, 37.044658660888672 ], [ -84.623260498046875, 37.044963836669922 ], [ -84.623855590820312, 37.045108795166016 ], [ -84.624114990234375, 37.044639587402344 ], [ -84.624252319335938, 37.044353485107422 ], [ -84.624313354492188, 37.044185638427734 ], [ -84.624038696289062, 37.044097900390625 ] ], [ [ -84.625984191894531, 37.047657012939453 ], [ -84.62591552734375, 37.048427581787109 ], [ -84.627510070800781, 37.048595428466797 ], [ -84.627700805664062, 37.047882080078125 ], [ -84.627540588378906, 37.0478515625 ], [ -84.625984191894531, 37.047657012939453 ] ], [ [ -84.630195617675781, 37.059188842773438 ], [ -84.629379272460938, 37.059288024902344 ], [ -84.628791809082031, 37.059108734130859 ], [ -84.628448486328125, 37.058917999267578 ], [ -84.628135681152344, 37.058620452880859 ], [ -84.627876281738281, 37.058242797851562 ], [ -84.627738952636719, 37.057792663574219 ], [ -84.627464294433594, 37.057033538818359 ], [ -84.627365112304688, 37.056179046630859 ], [ -84.627372741699219, 37.055618286132812 ], [ -84.627388000488281, 37.055549621582031 ], [ -84.62744140625, 37.055328369140625 ], [ -84.627174377441406, 37.055286407470703 ], [ -84.626914978027344, 37.055294036865234 ], [ -84.626556396484375, 37.055263519287109 ], [ -84.626174926757812, 37.055393218994141 ], [ -84.625656127929688, 37.055484771728516 ], [ -84.625259399414062, 37.055503845214844 ], [ -84.624931335449219, 37.055484771728516 ], [ -84.624969482421875, 37.055385589599609 ], [ -84.625289916992188, 37.054130554199219 ], [ -84.62579345703125, 37.052314758300781 ], [ -84.625808715820312, 37.051380157470703 ], [ -84.625831604003906, 37.051082611083984 ], [ -84.62567138671875, 37.051048278808594 ], [ -84.625457763671875, 37.051181793212891 ], [ -84.625221252441406, 37.051326751708984 ], [ -84.62530517578125, 37.051322937011719 ], [ -84.625434875488281, 37.051334381103516 ], [ -84.625625610351562, 37.051357269287109 ], [ -84.625541687011719, 37.051891326904297 ], [ -84.62548828125, 37.052200317382812 ], [ -84.625267028808594, 37.052360534667969 ], [ -84.6248779296875, 37.052688598632812 ], [ -84.624343872070312, 37.052120208740234 ], [ -84.624610900878906, 37.051845550537109 ], [ -84.624092102050781, 37.051811218261719 ], [ -84.624076843261719, 37.051792144775391 ], [ -84.623832702636719, 37.051475524902344 ], [ -84.623771667480469, 37.051387786865234 ], [ -84.624107360839844, 37.051143646240234 ], [ -84.6240234375, 37.050914764404297 ], [ -84.623542785644531, 37.051082611083984 ], [ -84.62347412109375, 37.050987243652344 ], [ -84.623405456542969, 37.0509033203125 ], [ -84.623184204101562, 37.050632476806641 ], [ -84.6231689453125, 37.050342559814453 ], [ -84.622886657714844, 37.050411224365234 ], [ -84.622871398925781, 37.050472259521484 ], [ -84.622848510742188, 37.050544738769531 ], [ -84.622901916503906, 37.050739288330078 ], [ -84.622932434082031, 37.050907135009766 ], [ -84.6229248046875, 37.051101684570312 ], [ -84.622848510742188, 37.051490783691406 ], [ -84.622650146484375, 37.052604675292969 ], [ -84.623222351074219, 37.053241729736328 ], [ -84.622383117675781, 37.054100036621094 ], [ -84.622207641601562, 37.054271697998047 ], [ -84.621192932128906, 37.055294036865234 ], [ -84.620033264160156, 37.056465148925781 ], [ -84.619827270507812, 37.056686401367188 ], [ -84.61688232421875, 37.055641174316406 ], [ -84.616714477539062, 37.055934906005859 ], [ -84.617576599121094, 37.056266784667969 ], [ -84.619636535644531, 37.056903839111328 ], [ -84.61956787109375, 37.056987762451172 ], [ -84.61944580078125, 37.057174682617188 ], [ -84.616683959960938, 37.056324005126953 ], [ -84.616233825683594, 37.056186676025391 ], [ -84.614494323730469, 37.056682586669922 ], [ -84.614761352539062, 37.057071685791016 ], [ -84.614486694335938, 37.057270050048828 ], [ -84.614837646484375, 37.057636260986328 ], [ -84.614898681640625, 37.0576171875 ], [ -84.615264892578125, 37.057476043701172 ], [ -84.615608215332031, 37.057376861572266 ], [ -84.615707397460938, 37.057369232177734 ], [ -84.61578369140625, 37.057426452636719 ], [ -84.615814208984375, 37.057563781738281 ], [ -84.615913391113281, 37.057579040527344 ], [ -84.616111755371094, 37.057506561279297 ], [ -84.616363525390625, 37.057563781738281 ], [ -84.616455078125, 37.057430267333984 ], [ -84.616600036621094, 37.057418823242188 ], [ -84.616775512695312, 37.057464599609375 ], [ -84.617462158203125, 37.057224273681641 ], [ -84.617752075195312, 37.057880401611328 ], [ -84.619094848632812, 37.057865142822266 ], [ -84.619026184082031, 37.058097839355469 ], [ -84.618949890136719, 37.058425903320312 ], [ -84.618911743164062, 37.058681488037109 ], [ -84.618896484375, 37.058906555175781 ], [ -84.619857788085938, 37.058937072753906 ], [ -84.620246887207031, 37.058956146240234 ], [ -84.620269775390625, 37.058956146240234 ], [ -84.620529174804688, 37.058986663818359 ], [ -84.620674133300781, 37.059005737304688 ], [ -84.620819091796875, 37.059036254882812 ], [ -84.620765686035156, 37.059299468994141 ], [ -84.620750427246094, 37.059368133544922 ], [ -84.6207275390625, 37.059467315673828 ], [ -84.620689392089844, 37.059638977050781 ], [ -84.620658874511719, 37.059799194335938 ], [ -84.620643615722656, 37.059921264648438 ], [ -84.62152099609375, 37.060157775878906 ], [ -84.622543334960938, 37.060428619384766 ], [ -84.622726440429688, 37.060474395751953 ], [ -84.622955322265625, 37.060447692871094 ], [ -84.623275756835938, 37.059673309326172 ], [ -84.62335205078125, 37.059486389160156 ], [ -84.623146057128906, 37.059455871582031 ], [ -84.622955322265625, 37.059417724609375 ], [ -84.621559143066406, 37.059089660644531 ], [ -84.62261962890625, 37.058113098144531 ], [ -84.623390197753906, 37.058364868164062 ], [ -84.623565673828125, 37.058425903320312 ], [ -84.624168395996094, 37.058815002441406 ], [ -84.624504089355469, 37.059429168701172 ], [ -84.62493896484375, 37.05926513671875 ], [ -84.62640380859375, 37.059009552001953 ], [ -84.6278076171875, 37.058761596679688 ], [ -84.630218505859375, 37.059818267822266 ], [ -84.631034851074219, 37.058685302734375 ], [ -84.630195617675781, 37.059188842773438 ] ], [ [ -84.621070861816406, 37.064517974853516 ], [ -84.621299743652344, 37.063957214355469 ], [ -84.621109008789062, 37.063922882080078 ], [ -84.618492126464844, 37.063457489013672 ], [ -84.618415832519531, 37.063827514648438 ], [ -84.618240356445312, 37.064563751220703 ], [ -84.618186950683594, 37.064746856689453 ], [ -84.618965148925781, 37.064861297607422 ], [ -84.620613098144531, 37.065200805664062 ], [ -84.620796203613281, 37.065235137939453 ], [ -84.620826721191406, 37.065170288085938 ], [ -84.621070861816406, 37.064517974853516 ] ], [ [ -84.628189086914062, 37.099784851074219 ], [ -84.626907348632812, 37.100193023681641 ], [ -84.626785278320312, 37.100242614746094 ], [ -84.626724243164062, 37.100284576416016 ], [ -84.626686096191406, 37.100337982177734 ], [ -84.626640319824219, 37.100460052490234 ], [ -84.626518249511719, 37.100791931152344 ], [ -84.627159118652344, 37.101009368896484 ], [ -84.628570556640625, 37.100589752197266 ], [ -84.628349304199219, 37.100124359130859 ], [ -84.628189086914062, 37.099784851074219 ] ], [ [ -84.603240966796875, 37.105072021484375 ], [ -84.603065490722656, 37.105064392089844 ], [ -84.602981567382812, 37.105052947998047 ], [ -84.601997375488281, 37.104755401611328 ], [ -84.602188110351562, 37.103603363037109 ], [ -84.598793029785156, 37.102970123291016 ], [ -84.597549438476562, 37.102752685546875 ], [ -84.596893310546875, 37.104106903076172 ], [ -84.598350524902344, 37.104152679443359 ], [ -84.598838806152344, 37.1043701171875 ], [ -84.599769592285156, 37.104530334472656 ], [ -84.599845886230469, 37.104549407958984 ], [ -84.601486206054688, 37.104934692382812 ], [ -84.602645874023438, 37.105194091796875 ], [ -84.602890014648438, 37.105243682861328 ], [ -84.603164672851562, 37.105300903320312 ], [ -84.603240966796875, 37.105072021484375 ] ], [ [ -84.601318359375, 37.108478546142578 ], [ -84.60125732421875, 37.108547210693359 ], [ -84.600807189941406, 37.109081268310547 ], [ -84.600982666015625, 37.109149932861328 ], [ -84.601753234863281, 37.109466552734375 ], [ -84.602188110351562, 37.108791351318359 ], [ -84.601455688476562, 37.108531951904297 ], [ -84.601318359375, 37.108478546142578 ] ] ] } }
]
}
