{
"type": "FeatureCollection",
"name": "vancouver",
"crs": { "type": "name", "properties": { "name": "urn:ogc:def:crs:OGC:1.3:CRS84" } },
"features": [
{ "type": "Feature", "properties": { "name": "Vancouver", "visible": null, "admin_level": "8", "boundary": "administrative", "start_date": null, "id": 884610406, "timestamp": 1741910129, "version": 66, "tags": { "name:be": "Ванкувер", "name:de": "Vancouver", "name:el": "Βανκούβερ", "name:en": "Vancouver", "name:es": "Vancouver", "name:etymology:wikidata": "Q205485", "name:fa": "ونکوور", "name:fr": "Vancouver", "name:he": "ונקובר", "name:it": "Vancouver", "name:ja": "バンクーバー", "name:ko": "밴쿠버", "name:lil": "pankʷúhp", "name:ru": "Ванкувер", "name:squ": "K'emk'emeláy̓", "name:zh": "溫哥華", "name:zh-Hans": "温哥华", "official_name": "City of Vancouver", "population": "631486", "population:date": "2016", "type": "boundary", "wikidata": "Q24639", "wikipedia": "en:Vancouver" }, "osm_type": "relation", "ref": null, "website": null, "border_type": null, "changeset": 163592678.0 }, "geometry": { "type": "Polygon", "coordinates": [ [ [ -123.223861694335938, 49.277935028076172 ], [ -123.223587036132812, 49.278636932373047 ], [ -123.221946716308594, 49.28277587890625 ], [ -123.164375305175781, 49.282028198242188 ], [ -123.164382934570312, 49.284519195556641 ], [ -123.164421081542969, 49.296794891357422 ], [ -123.164482116699219, 49.316162109375 ], [ -123.141937255859375, 49.316169738769531 ], [ -123.141311645507812, 49.316169738769531 ], [ -123.139213562011719, 49.315296173095703 ], [ -123.133232116699219, 49.312965393066406 ], [ -123.127716064453125, 49.310871124267578 ], [ -123.102676391601562, 49.30126953125 ], [ -123.098297119140625, 49.299571990966797 ], [ -123.038505554199219, 49.295635223388672 ], [ -123.034324645996094, 49.295333862304688 ], [ -123.023239135742188, 49.294540405273438 ], [ -123.02325439453125, 49.293365478515625 ], [ -123.023262023925781, 49.292789459228516 ], [ -123.023391723632812, 49.281105041503906 ], [ -123.023445129394531, 49.277565002441406 ], [ -123.023445129394531, 49.277454376220703 ], [ -123.023460388183594, 49.276397705078125 ], [ -123.023582458496094, 49.265586853027344 ], [ -123.023597717285156, 49.26129150390625 ], [ -123.023597717285156, 49.260990142822266 ], [ -123.023612976074219, 49.258193969726562 ], [ -123.023666381835938, 49.250648498535156 ], [ -123.023674011230469, 49.245269775390625 ], [ -123.023658752441406, 49.243003845214844 ], [ -123.023582458496094, 49.232936859130859 ], [ -123.023582458496094, 49.232303619384766 ], [ -123.023521423339844, 49.223388671875 ], [ -123.023674011230469, 49.221992492675781 ], [ -123.023674011230469, 49.221961975097656 ], [ -123.023696899414062, 49.221797943115234 ], [ -123.023719787597656, 49.212078094482422 ], [ -123.023796081542969, 49.211750030517578 ], [ -123.024070739746094, 49.210567474365234 ], [ -123.0240478515625, 49.210472106933594 ], [ -123.023529052734375, 49.208175659179688 ], [ -123.023391723632812, 49.20758056640625 ], [ -123.023384094238281, 49.207500457763672 ], [ -123.023368835449219, 49.207344055175781 ], [ -123.023391723632812, 49.205173492431641 ], [ -123.023330688476562, 49.203319549560547 ], [ -123.023338317871094, 49.203140258789062 ], [ -123.02337646484375, 49.201236724853516 ], [ -123.023391723632812, 49.200588226318359 ], [ -123.026504516601562, 49.201377868652344 ], [ -123.031539916992188, 49.202198028564453 ], [ -123.034049987792969, 49.202182769775391 ], [ -123.035202026367188, 49.20245361328125 ], [ -123.035545349121094, 49.202903747558594 ], [ -123.037490844726562, 49.203605651855469 ], [ -123.038688659667969, 49.203807830810547 ], [ -123.039695739746094, 49.204143524169922 ], [ -123.040382385253906, 49.204643249511719 ], [ -123.042449951171875, 49.204929351806641 ], [ -123.043067932128906, 49.204814910888672 ], [ -123.050453186035156, 49.204746246337891 ], [ -123.054420471191406, 49.204776763916016 ], [ -123.05682373046875, 49.204788208007812 ], [ -123.059562683105469, 49.204952239990234 ], [ -123.061408996582031, 49.205219268798828 ], [ -123.062797546386719, 49.205169677734375 ], [ -123.064414978027344, 49.20538330078125 ], [ -123.0665283203125, 49.205883026123047 ], [ -123.067276000976562, 49.206008911132812 ], [ -123.068496704101562, 49.206573486328125 ], [ -123.070579528808594, 49.207164764404297 ], [ -123.072990417480469, 49.207931518554688 ], [ -123.075935363769531, 49.208320617675781 ], [ -123.078956604003906, 49.207481384277344 ], [ -123.080757141113281, 49.207111358642578 ], [ -123.082283020019531, 49.207168579101562 ], [ -123.082992553710938, 49.206886291503906 ], [ -123.083831787109375, 49.206695556640625 ], [ -123.084846496582031, 49.206645965576172 ], [ -123.085525512695312, 49.206443786621094 ], [ -123.087181091308594, 49.206008911132812 ], [ -123.088005065917969, 49.206096649169922 ], [ -123.090866088867188, 49.205154418945312 ], [ -123.091262817382812, 49.205097198486328 ], [ -123.093093872070312, 49.204814910888672 ], [ -123.094795227050781, 49.204807281494141 ], [ -123.095420837402344, 49.204689025878906 ], [ -123.099151611328125, 49.204532623291016 ], [ -123.10125732421875, 49.204448699951172 ], [ -123.101753234863281, 49.204208374023438 ], [ -123.102325439453125, 49.204196929931641 ], [ -123.103034973144531, 49.204444885253906 ], [ -123.105072021484375, 49.204368591308594 ], [ -123.108856201171875, 49.204677581787109 ], [ -123.111473083496094, 49.204597473144531 ], [ -123.11187744140625, 49.20477294921875 ], [ -123.113433837890625, 49.204727172851562 ], [ -123.114906311035156, 49.204391479492188 ], [ -123.117378234863281, 49.203845977783203 ], [ -123.119857788085938, 49.20269775390625 ], [ -123.121910095214844, 49.201431274414062 ], [ -123.125144958496094, 49.200096130371094 ], [ -123.132606506347656, 49.198928833007812 ], [ -123.1400146484375, 49.200214385986328 ], [ -123.140235900878906, 49.201034545898438 ], [ -123.140754699707031, 49.201461791992188 ], [ -123.140968322753906, 49.201637268066406 ], [ -123.14190673828125, 49.202262878417969 ], [ -123.143409729003906, 49.202850341796875 ], [ -123.144760131835938, 49.203548431396484 ], [ -123.147064208984375, 49.204505920410156 ], [ -123.148269653320312, 49.204933166503906 ], [ -123.150077819824219, 49.204856872558594 ], [ -123.151412963867188, 49.205352783203125 ], [ -123.15325927734375, 49.206859588623047 ], [ -123.157035827636719, 49.209720611572266 ], [ -123.15802001953125, 49.2108154296875 ], [ -123.161117553710938, 49.212261199951172 ], [ -123.164031982421875, 49.213436126708984 ], [ -123.166984558105469, 49.214328765869141 ], [ -123.169059753417969, 49.214744567871094 ], [ -123.172462463378906, 49.215129852294922 ], [ -123.177177429199219, 49.215179443359375 ], [ -123.177841186523438, 49.215278625488281 ], [ -123.178794860839844, 49.215415954589844 ], [ -123.180366516113281, 49.215496063232422 ], [ -123.181846618652344, 49.215686798095703 ], [ -123.18353271484375, 49.216163635253906 ], [ -123.185676574707031, 49.21710205078125 ], [ -123.187591552734375, 49.218112945556641 ], [ -123.190048217773438, 49.219024658203125 ], [ -123.191261291503906, 49.219688415527344 ], [ -123.199043273925781, 49.220767974853516 ], [ -123.201850891113281, 49.221282958984375 ], [ -123.202827453613281, 49.221656799316406 ], [ -123.205337524414062, 49.222122192382812 ], [ -123.203697204589844, 49.222625732421875 ], [ -123.203536987304688, 49.222946166992188 ], [ -123.203544616699219, 49.222991943359375 ], [ -123.203582763671875, 49.223190307617188 ], [ -123.204795837402344, 49.223560333251953 ], [ -123.206100463867188, 49.224372863769531 ], [ -123.206474304199219, 49.224418640136719 ], [ -123.20733642578125, 49.224880218505859 ], [ -123.207893371582031, 49.225521087646484 ], [ -123.207962036132812, 49.226364135742188 ], [ -123.208221435546875, 49.226848602294922 ], [ -123.207969665527344, 49.227226257324219 ], [ -123.208786010742188, 49.227920532226562 ], [ -123.210227966308594, 49.228534698486328 ], [ -123.210762023925781, 49.229442596435547 ], [ -123.214073181152344, 49.231288909912109 ], [ -123.21514892578125, 49.231746673583984 ], [ -123.215965270996094, 49.232093811035156 ], [ -123.21795654296875, 49.233280181884766 ], [ -123.218772888183594, 49.233612060546875 ], [ -123.219230651855469, 49.234039306640625 ], [ -123.219970703125, 49.234336853027344 ], [ -123.221473693847656, 49.235343933105469 ], [ -123.221511840820312, 49.235713958740234 ], [ -123.22222900390625, 49.235931396484375 ], [ -123.222183227539062, 49.236003875732422 ], [ -123.2216796875, 49.236797332763672 ], [ -123.221664428710938, 49.236824035644531 ], [ -123.221611022949219, 49.236904144287109 ], [ -123.219924926757812, 49.239582061767578 ], [ -123.208602905273438, 49.235279083251953 ], [ -123.205734252929688, 49.23724365234375 ], [ -123.196998596191406, 49.234874725341797 ], [ -123.196907043457031, 49.234859466552734 ], [ -123.196868896484375, 49.234951019287109 ], [ -123.196861267089844, 49.236579895019531 ], [ -123.197174072265625, 49.236579895019531 ], [ -123.198524475097656, 49.236591339111328 ], [ -123.198486328125, 49.238533020019531 ], [ -123.196884155273438, 49.238544464111328 ], [ -123.196884155273438, 49.238643646240234 ], [ -123.1968994140625, 49.242938995361328 ], [ -123.196907043457031, 49.246185302734375 ], [ -123.198524475097656, 49.246196746826172 ], [ -123.198928833007812, 49.246242523193359 ], [ -123.200614929199219, 49.247100830078125 ], [ -123.204627990722656, 49.249053955078125 ], [ -123.204566955566406, 49.249343872070312 ], [ -123.20416259765625, 49.249504089355469 ], [ -123.201187133789062, 49.250022888183594 ], [ -123.20001220703125, 49.250152587890625 ], [ -123.198867797851562, 49.250129699707031 ], [ -123.197792053222656, 49.249965667724609 ], [ -123.196685791015625, 49.249984741210938 ], [ -123.196678161621094, 49.254165649414062 ], [ -123.196601867675781, 49.25555419921875 ], [ -123.196640014648438, 49.256622314453125 ], [ -123.198402404785156, 49.256637573242188 ], [ -123.202827453613281, 49.25665283203125 ], [ -123.203071594238281, 49.257156372070312 ], [ -123.203094482421875, 49.257972717285156 ], [ -123.203224182128906, 49.257972717285156 ], [ -123.215591430664062, 49.258228302001953 ], [ -123.215179443359375, 49.267448425292969 ], [ -123.219589233398438, 49.267311096191406 ], [ -123.219505310058594, 49.268985748291016 ], [ -123.221427917480469, 49.268779754638672 ], [ -123.221664428710938, 49.268753051757812 ], [ -123.221755981445312, 49.269012451171875 ], [ -123.222503662109375, 49.2711181640625 ], [ -123.222557067871094, 49.271156311035156 ], [ -123.223617553710938, 49.271915435791016 ], [ -123.224525451660156, 49.272632598876953 ], [ -123.224746704101562, 49.273303985595703 ], [ -123.224960327148438, 49.274623870849609 ], [ -123.224258422851562, 49.277061462402344 ], [ -123.224098205566406, 49.277446746826172 ], [ -123.223861694335938, 49.277935028076172 ] ] ] } }
]
}
