{
"type": "FeatureCollection",
"name": "vancouver_city",
"features": [
{ "type": "Feature", "properties": { }, "geometry": { "type": "Polygon", "coordinates": [ [ [ -123.2278286668449, 49.278677805138123 ], [ -123.227582844343203, 49.279306146963968 ], [ -123.227579707718462, 49.279314113746651 ], [ -123.225939699976294, 49.283453116017512 ], [ -123.22567068502822, 49.283936550662744 ], [ -123.225266307501599, 49.284377800108174 ], [ -123.224741262921285, 49.284760825173414 ], [ -123.224114634303334, 49.285071702760121 ], [ -123.223409198628076, 49.285299132121239 ], [ -123.222650598799433, 49.285434845810869 ], [ -123.221866411212872, 49.285473910347967 ], [ -123.168508902965812, 49.28478193405693 ], [ -123.168547218358981, 49.296789295125421 ], [ -123.168609870955635, 49.316156472910713 ], [ -123.168532121570493, 49.316683500330676 ], [ -123.168298452327207, 49.317190457938985 ], [ -123.167917854714759, 49.317657828248088 ], [ -123.167404977973931, 49.318067617329447 ], [ -123.166779565567154, 49.318404047740039 ], [ -123.16606569525797, 49.318654166157266 ], [ -123.165290852031461, 49.318808342292996 ], [ -123.16448486956871, 49.318860639842718 ], [ -123.141938776973632, 49.318868270860555 ], [ -123.141311628574087, 49.318868271074827 ], [ -123.140535971363278, 49.318820199530293 ], [ -123.139787951513227, 49.318677701811865 ], [ -123.139094220612591, 49.318445855100933 ], [ -123.137047711062337, 49.317593748300851 ], [ -123.131138981611286, 49.315291264796386 ], [ -123.125643206890757, 49.313204661804733 ], [ -123.12562871015281, 49.313199131388458 ], [ -123.100588261794087, 49.303597090474021 ], [ -123.100572290763154, 49.303590931694778 ], [ -123.09697764520341, 49.3021975353968 ], [ -123.038090605338496, 49.298320088226305 ], [ -123.038053647726414, 49.298317535112488 ], [ -123.03387428717491, 49.298016285611844 ], [ -123.022789954447703, 49.29722291274247 ], [ -123.021944673343441, 49.297102709820024 ], [ -123.021156293696635, 49.296869885953136 ], [ -123.020459469510499, 49.29653467543551 ], [ -123.019884828628904, 49.296111812947522 ], [ -123.019457626300294, 49.29561988562584 ], [ -123.019196635312014, 49.29508051580099 ], [ -123.01911332145373, 49.294517410381822 ], [ -123.019128678295488, 49.29334248415249 ], [ -123.019136336586698, 49.292767899162122 ], [ -123.01926698991241, 49.281085376130612 ], [ -123.019267082706037, 49.281078333417923 ], [ -123.01932058166426, 49.277551612191679 ], [ -123.019320589778587, 49.277454302607239 ], [ -123.019320775984497, 49.277428807500158 ], [ -123.019336082537023, 49.276374914079199 ], [ -123.01945894465311, 49.265573674343528 ], [ -123.019474525093585, 49.261288293540126 ], [ -123.019474549938934, 49.26099006925007 ], [ -123.019474577042146, 49.260980430718206 ], [ -123.019490068758785, 49.258184258134136 ], [ -123.019490086955727, 49.258181392976191 ], [ -123.01954408529987, 49.250640921276172 ], [ -123.019552144152598, 49.245274397866275 ], [ -123.019537126828823, 49.243016416657611 ], [ -123.019461676068289, 49.232950175578566 ], [ -123.019461626454245, 49.232936785636909 ], [ -123.019461678623188, 49.232309596500507 ], [ -123.019401425711848, 49.223400697299368 ], [ -123.019411917430844, 49.223195912568485 ], [ -123.019564620502592, 49.221799738736742 ], [ -123.019565392950653, 49.221799774982856 ], [ -123.019571212688845, 49.221716284380392 ], [ -123.019577293860394, 49.221672728597142 ], [ -123.019600694838331, 49.212073858651948 ], [ -123.019647715342913, 49.211671559214984 ], [ -123.019723977414529, 49.211343748064671 ], [ -123.019904960405242, 49.21056479758883 ], [ -123.019455573794929, 49.208574865132661 ], [ -123.019319252801722, 49.207983930508917 ], [ -123.019280980658749, 49.207748558440414 ], [ -123.01927355217147, 49.207670491375076 ], [ -123.019258505310987, 49.20751612989973 ], [ -123.019250230566641, 49.207325336861359 ], [ -123.019272890643194, 49.205193201473378 ], [ -123.019213271011651, 49.203377675033792 ], [ -123.019213924274993, 49.203244259692823 ], [ -123.019220720605929, 49.203084856934566 ], [ -123.019258625264783, 49.201201218103982 ], [ -123.019258760194774, 49.20119504776396 ], [ -123.019274072811285, 49.200546549761633 ], [ -123.019362297012762, 49.200031170898995 ], [ -123.01959933348877, 49.19953636782072 ], [ -123.019976424015383, 49.199080414023648 ], [ -123.020479639095839, 49.198680147793624 ], [ -123.021090392787627, 49.198350350510431 ], [ -123.021786129261301, 49.198103200951813 ], [ -123.022541155714663, 49.197947825718209 ], [ -123.023327590900507, 49.197889962350537 ], [ -123.024116394290687, 49.197931747555231 ], [ -123.024878437949354, 49.198071638339783 ], [ -123.027749462090611, 49.198799948327483 ], [ -123.032025186575027, 49.199496376577628 ], [ -123.034011717568816, 49.199484295916868 ], [ -123.034736929878321, 49.199521988185374 ], [ -123.03544070732184, 49.199642714514816 ], [ -123.036592694476141, 49.199913544281451 ], [ -123.037302258572126, 49.20013233538269 ], [ -123.037935674689521, 49.200435297352747 ], [ -123.038469975310491, 49.200811445607954 ], [ -123.038567322160858, 49.20091344890006 ], [ -123.039021643323139, 49.201077356718493 ], [ -123.039715920453361, 49.201194541560938 ], [ -123.040555945997255, 49.201402573429561 ], [ -123.041562989852864, 49.201738250658359 ], [ -123.042201785169595, 49.202002063118364 ], [ -123.042475252304868, 49.202167655067029 ], [ -123.043009702562841, 49.20211659161086 ], [ -123.050394554737423, 49.202047930885151 ], [ -123.050501637990976, 49.202047844163339 ], [ -123.05445958642963, 49.202078290164039 ], [ -123.05685359367331, 49.202089690156193 ], [ -123.057198652124313, 49.202100824877903 ], [ -123.059937457566974, 49.202264848104043 ], [ -123.060450385814008, 49.202317085066632 ], [ -123.061746946540239, 49.20250460719631 ], [ -123.062573367949369, 49.202475090132303 ], [ -123.06361135283467, 49.20252429909965 ], [ -123.065228701681747, 49.202737910884103 ], [ -123.065813030285426, 49.202844955253951 ], [ -123.067742518479605, 49.203301205217095 ], [ -123.068300950945442, 49.203395226220948 ], [ -123.069004397577615, 49.20355946242217 ], [ -123.069651024898633, 49.203804230076514 ], [ -123.070524275269847, 49.204208102236649 ], [ -123.072216816084875, 49.204688577246301 ], [ -123.072378046287312, 49.204737073654329 ], [ -123.074317848783863, 49.205354003539554 ], [ -123.075500682999177, 49.205510288583206 ], [ -123.077348947910806, 49.204996873351206 ], [ -123.077724067422125, 49.204906469614279 ], [ -123.079524520282334, 49.204536463070298 ], [ -123.080250277630256, 49.204433285440956 ], [ -123.08099251321579, 49.204417181920483 ], [ -123.081339663451601, 49.204430201851068 ], [ -123.08164289805201, 49.204336716258581 ], [ -123.082482093518607, 49.204145991137182 ], [ -123.083525472852202, 49.204004443465443 ], [ -123.083809579552664, 49.203990559466099 ], [ -123.083821619273564, 49.20398697459175 ], [ -123.083993066535385, 49.203938962864555 ], [ -123.08564857502158, 49.20350410919081 ], [ -123.086360925177928, 49.203364375092356 ], [ -123.087100007982571, 49.203310846719027 ], [ -123.087269289673486, 49.203318703181274 ], [ -123.089016525231187, 49.202743274465348 ], [ -123.089980767651682, 49.20251892045178 ], [ -123.090348515567513, 49.202465880061823 ], [ -123.092150612923987, 49.202188057216574 ], [ -123.093065734541156, 49.202116386042967 ], [ -123.094199255716049, 49.202111305809552 ], [ -123.094279324082208, 49.202096170776635 ], [ -123.095157989793748, 49.201995939890139 ], [ -123.09888856198404, 49.201839545848749 ], [ -123.098901638199067, 49.201839011134822 ], [ -123.099922252145163, 49.201798339346112 ], [ -123.100018843269396, 49.201760764781667 ], [ -123.100803907480639, 49.20158246092786 ], [ -123.101627608925156, 49.201511042014559 ], [ -123.102199782425302, 49.201499598560304 ], [ -123.102912240222977, 49.201525875994435 ], [ -123.103607082527162, 49.201632345814765 ], [ -123.103885101630823, 49.201710057535578 ], [ -123.104836954639552, 49.201674403134504 ], [ -123.105581381076163, 49.201690723274879 ], [ -123.109015879125039, 49.201971166504414 ], [ -123.11128082079415, 49.201901828154689 ], [ -123.112144869468565, 49.201935029987418 ], [ -123.112704548092452, 49.202036182981288 ], [ -123.113552976039031, 49.201842757298955 ], [ -123.113591943136754, 49.201834016239587 ], [ -123.115493196716741, 49.201414457589792 ], [ -123.117244943074553, 49.20060327817567 ], [ -123.119086787064916, 49.199466710544911 ], [ -123.119715480033534, 49.199147817341192 ], [ -123.122950253694412, 49.197812734304208 ], [ -123.123548211834105, 49.197608665120242 ], [ -123.124188963220746, 49.197471267622518 ], [ -123.13165013897158, 49.196304031805006 ], [ -123.13231867734001, 49.196236844191091 ], [ -123.132994979700342, 49.196242279084416 ], [ -123.133660803225283, 49.196320189879472 ], [ -123.141068582752069, 49.197605676153486 ], [ -123.141799569945903, 49.197782469968288 ], [ -123.14246666005657, 49.19804633103832 ], [ -123.143045971044643, 49.19838781351045 ], [ -123.143516762053281, 49.198794692577977 ], [ -123.143862175934416, 49.199252401965722 ], [ -123.144069842963731, 49.199744555254171 ], [ -123.144106282271792, 49.199879593004148 ], [ -123.144471868620087, 49.200123308554332 ], [ -123.145519332742566, 49.200532713341588 ], [ -123.145960451960391, 49.2007316887332 ], [ -123.147144603837006, 49.201343820989059 ], [ -123.149149214435056, 49.202176846953968 ], [ -123.149187124227439, 49.202190283394607 ], [ -123.149813121899669, 49.202163866787551 ], [ -123.150607701366866, 49.202180716690435 ], [ -123.151382537997634, 49.202297287969323 ], [ -123.152108761873649, 49.202509237278022 ], [ -123.153443862913647, 49.203005124691586 ], [ -123.154081836467213, 49.203297498136948 ], [ -123.154624448621277, 49.203663315974012 ], [ -123.156423682382794, 49.205131623393768 ], [ -123.160151051340122, 49.207955251617051 ], [ -123.160584831462501, 49.208351080265118 ], [ -123.161124078360331, 49.208950899691928 ], [ -123.163394440298134, 49.210010553112483 ], [ -123.165981223551682, 49.211053376521335 ], [ -123.168456650252011, 49.211801754407325 ], [ -123.170016693946224, 49.212114335249929 ], [ -123.172848636937104, 49.212434993059176 ], [ -123.177243426259039, 49.212481210773547 ], [ -123.178093476962303, 49.212548438403886 ], [ -123.178741388008746, 49.212645252565771 ], [ -123.179399708698838, 49.21274005141192 ], [ -123.180686006039352, 49.212805613594121 ], [ -123.181161614110366, 49.212848231617578 ], [ -123.182641640598888, 49.213038956470498 ], [ -123.183479294825602, 49.213209233891767 ], [ -123.185165322322135, 49.213686047505703 ], [ -123.185821337117588, 49.213919868207128 ], [ -123.187965143028663, 49.214858241689775 ], [ -123.188261376661245, 49.215000823375732 ], [ -123.189914621863011, 49.21587353317318 ], [ -123.192078783730111, 49.216676676398336 ], [ -123.192689182134174, 49.216953562481173 ], [ -123.193116525882331, 49.217187388878237 ], [ -123.19989660066426, 49.218127924684772 ], [ -123.200154215421207, 49.218169371285953 ], [ -123.202961696788307, 49.218684328825901 ], [ -123.203929609600536, 49.218953093976594 ], [ -123.204453742721569, 49.219153737322372 ], [ -123.206459517626769, 49.219525622390726 ], [ -123.20723306254591, 49.219726220344945 ], [ -123.207929314708934, 49.220024526723414 ], [ -123.208519881763692, 49.220408377616238 ], [ -123.208980679269771, 49.220862120589587 ], [ -123.209292912901049, 49.221367252738098 ], [ -123.20944384525275, 49.221903175006346 ], [ -123.20942731592767, 49.222448032060029 ], [ -123.209408034926554, 49.222503940849805 ], [ -123.209943908291081, 49.222790836799284 ], [ -123.210483626158236, 49.223138637858 ], [ -123.210917068306955, 49.223545254672423 ], [ -123.211474045300733, 49.224186106655345 ], [ -123.211846872662591, 49.224761314186239 ], [ -123.212007713492355, 49.225377265420882 ], [ -123.212045039951391, 49.225835088391939 ], [ -123.212109531001474, 49.225955516351199 ], [ -123.212182699112603, 49.226148238587932 ], [ -123.212474264415192, 49.226272418798509 ], [ -123.213141550820396, 49.226626547192907 ], [ -123.213682258793952, 49.227063581557566 ], [ -123.214072893794096, 49.227564535009243 ], [ -123.214230532756929, 49.227832489719148 ], [ -123.21654160637685, 49.22912110021565 ], [ -123.217393496921616, 49.229483598540547 ], [ -123.218209295099967, 49.229830496899218 ], [ -123.218738271117999, 49.230097711313952 ], [ -123.220450468854722, 49.231117785825553 ], [ -123.220946275521669, 49.231319347396365 ], [ -123.221603601452756, 49.231650958311121 ], [ -123.222097919623891, 49.232025525792409 ], [ -123.222126778967208, 49.232037128681498 ], [ -123.222917829080487, 49.232450696833297 ], [ -123.224420822232133, 49.233457738894366 ], [ -123.22488109468253, 49.233826187728774 ], [ -123.224973491890992, 49.23393460622087 ], [ -123.225230582290365, 49.234082363016647 ], [ -123.225712418546777, 49.234489498614231 ], [ -123.226067353332084, 49.234949167688455 ], [ -123.226282452464943, 49.235444624167535 ], [ -123.226349875254286, 49.235957817709171 ], [ -123.226267160726451, 49.236470051220522 ], [ -123.226037317941675, 49.23696266201771 ], [ -123.225991546204128, 49.237035142755062 ], [ -123.225988879347113, 49.237039355700901 ], [ -123.225485389856004, 49.237832829103652 ], [ -123.225485256946556, 49.23783279294318 ], [ -123.225441457013204, 49.237903614545353 ], [ -123.2254050142718, 49.237958284938316 ], [ -123.223735244724068, 49.240610594298325 ], [ -123.223371134797858, 49.241062154727913 ], [ -123.222883621394303, 49.241460720194993 ], [ -123.222290159092609, 49.241792018517629 ], [ -123.221611997696272, 49.242044186015704 ], [ -123.220873421277858, 49.242208192498133 ], [ -123.22010087835497, 49.242278164769836 ], [ -123.219322034387687, 49.242251597049943 ], [ -123.218564780594932, 49.242129440749089 ], [ -123.217856234666527, 49.241916070383283 ], [ -123.209339645692808, 49.238679431709286 ], [ -123.208712984911514, 49.239108592533078 ], [ -123.208087564818385, 49.239459009715858 ], [ -123.20736825795214, 49.239721052653188 ], [ -123.206583760453697, 49.239884266914693 ], [ -123.205765370466224, 49.239942140840348 ], [ -123.204945738963573, 49.239892365449428 ], [ -123.204157566479964, 49.239736926605261 ], [ -123.202432664754554, 49.239269236131989 ], [ -123.202282979160302, 49.239582877308855 ], [ -123.201904096838234, 49.240041052966788 ], [ -123.201397794897787, 49.240443012072774 ], [ -123.201012757373277, 49.240650143287532 ], [ -123.201021056146416, 49.242932644611116 ], [ -123.201023512251481, 49.243941881983041 ], [ -123.201458931752683, 49.244112169367568 ], [ -123.203109876257287, 49.244952561451484 ], [ -123.207087154743206, 49.246888224130643 ], [ -123.207732803086174, 49.247278906130589 ], [ -123.20823721597759, 49.247750341207066 ], [ -123.2085774434684, 49.248281083836062 ], [ -123.208738002763667, 49.248846989887333 ], [ -123.208711583402362, 49.249422314770278 ], [ -123.208650571717229, 49.249712233869595 ], [ -123.208486547781376, 49.250179529478999 ], [ -123.208198778886469, 49.25062044556865 ], [ -123.207796347113018, 49.25102106185652 ], [ -123.20729195546626, 49.251368730059056 ], [ -123.206701527036842, 49.251652473327532 ], [ -123.206297157225407, 49.251812698035195 ], [ -123.20522367022906, 49.252111722655791 ], [ -123.202248060924774, 49.252630548765346 ], [ -123.201872651698977, 49.252683874287996 ], [ -123.200803127851671, 49.25280193932705 ], [ -123.200801133188051, 49.253947270408602 ], [ -123.202849051438335, 49.253954311275933 ], [ -123.203706787769448, 49.254016371926447 ], [ -123.20452600015048, 49.254193949037294 ], [ -123.205270797831048, 49.254479262837947 ], [ -123.205908548816367, 49.254859813377394 ], [ -123.206411309194621, 49.255318927941104 ], [ -123.206424773315177, 49.255339083685577 ], [ -123.21572120077137, 49.255531083019676 ], [ -123.216521479696738, 49.255599305865871 ], [ -123.217286124897782, 49.255768266208058 ], [ -123.217985839271577, 49.256031490489043 ], [ -123.218593812404478, 49.256378893392906 ], [ -123.21908674756088, 49.256797164101599 ], [ -123.219445754306292, 49.257270276120721 ], [ -123.219657072575004, 49.257780101174752 ], [ -123.219712600407632, 49.258307103683563 ], [ -123.219431194369179, 49.264616986413508 ], [ -123.220241345022046, 49.2646465024363 ], [ -123.221061906398333, 49.264790506628984 ], [ -123.22181996532953, 49.265041499492717 ], [ -123.222483347262241, 49.265388828420839 ], [ -123.22302389432528, 49.265817751867495 ], [ -123.223418660355918, 49.266310064787874 ], [ -123.2234239322609, 49.266322205954346 ], [ -123.223946580485077, 49.266505426922059 ], [ -123.224552211031735, 49.266826657093588 ], [ -123.2250546430421, 49.267216735930795 ], [ -123.225435918654455, 49.267661723301224 ], [ -123.225682408601955, 49.268145716430126 ], [ -123.225773372014388, 49.268403386880095 ], [ -123.226276088591575, 49.269818897945576 ], [ -123.226661362479263, 49.270094671676908 ], [ -123.226793402770184, 49.270193939271934 ], [ -123.227701314994391, 49.270911077596921 ], [ -123.228235160335842, 49.271453686405103 ], [ -123.228556870658565, 49.272063716226214 ], [ -123.228778175214643, 49.272735095214784 ], [ -123.228847927564587, 49.273019727936635 ], [ -123.229061658758241, 49.274339605513454 ], [ -123.229013357260143, 49.27512341099164 ], [ -123.228311645779115, 49.277561026669495 ], [ -123.228238303149965, 49.277769839518079 ], [ -123.228078114609389, 49.278155129370646 ], [ -123.22803008159562, 49.278261912248126 ], [ -123.2278286668449, 49.278677805138123 ] ] ] } }
]
}
